store,friendly name,city,state,zip,address,
1001,Victorville,Victorville,CA,92392,14333 Bear Valley Rd,
1003,Tampa Palms,Tampa,FL,33647,6201 Commerce Palms Dr,
1004,S. Myrtle Beach,Myrtle Beach,SC,29588,8672 Highway 17 Bypass,
1006,Richmond,Richmond,KY,40475,814 Eastern Bypass,
1008,Clinton Township,Clinton Township,MI,48038,15350 Hall Rd,
1010,Du Bois,Du Bois,PA,15801,100 Commons Dr,
1013,Mission Valley,San Diego,CA,92108,2318 Northside Dr,
1014,North Attleboro,North Attleboro,MA,2760,1360 S. Washington St,
1016,N.W. Macon,Macon,GA,31210,6011 Zebulon Rd,
1019,San Bruno,San Bruno,CA,94066,1340 El Camino Real,
1022,Watertown,Watertown,NY,13601,20828 New York State, Route 3 (arsenal Street)
1023,Bedford Heights,Bedford Heights,OH,44146,24500 Miles Rd,
1024,Carson City,Carson City,NV,89701,430 Fairview Dr,
1026,Palm Springs,Palm Springs,CA,92264,5201 East Ramon Rd,
1030,Anaheim,Anaheim,CA,92801,1500 N. Lemon St,
1031,Anderson,Anderson,IN,46013,3335 South Scatterfield Rd,
1032,E. Chandler,Chandler,AZ,85224,2900 West Chandler Blvd,
1033,Henderson,Henderson,NV,89014,440 Marks St,
1034,Egg Harbor Township,Egg Harbor Township,NJ,8234,6048 Black Horse Pike,
1035,Holmdel,Holmdel,NJ,7733,2194 State Route 35,
1037,Central Richmond,Richmond,VA,23220,1640 West Broad St,
1038,Rockingham,Rockingham,NC,28379,1300-A East Broad Ave,
1040,Summersville,Summersville,WV,26651,5200 Webster Rd,
1041,Upland,Upland,CA,91786,1659 W. Foothill Blvd,
1042,W. Phoenix,Phoenix,AZ,85035,1620 North 75th Ave,
1043,Antioch,Antioch,CA,94509,1951 Auto Center Dr,
1045,Findlay,Findlay,OH,45840,1077 Bright Rd,
1046,Hamilton,Hamilton,NJ,8691,1000 Marketplace Blvd,
1047,Oaks,Oaks,PA,19456,200-B Mill Road,
1048,Riverside,Riverside,CA,92503,9851 Magnolia Ave,
1050,San Clemente,San Clemente,CA,92673,907 Avenida Pico,
1052,Tomball,Tomball,TX,77377,14236 Fm 2920,
1053,Pasadena,Pasadena,TX,77505,5400 Fairmont Pkwy,
1054,Metairie,Metairie,LA,70002,3640 Veterans Memorial Blvd,
1055,Fenton,Fenton,MO,63026,1 Gravois Bluffs Plaza Dr,
1057,St. Charles,Saint Charles,MO,63301,2900 West Clay St,
1058,Bunker Hill,Houston,TX,77055,9640 Old Katy Rd,
1059,Frisco,Frisco,TX,75034,3360 Preston Rd,
1060,S.W. Charlotte,Charlotte,NC,28273,8192 South Tryon St,
1064,S.E. Columbia,Columbia,SC,29209,7420 Garners Ferry Rd,
1065,Norfolk,Norfolk,VA,23502,1081 North Military Highway,
1066,Lexington,Lexington,SC,29072,5412 Sunset Blvd,
1067,Sedalia,Sedalia,MO,65301,3811 West Broadway,
1068,Shallotte,Shallotte,NC,28470,351 Whiteville Rd,
1069,W. Boca Raton,Boca Raton,FL,33428,21870 State Rd 7,
1070,Hammond,Hammond,LA,70401,3007 Highway 190 West,
1071,Highland Heights,Highland Heights,KY,41076,2369 Alexandria Pike,
1072,Galax,Galax,VA,24333,8417 Carrollton/Pike Rd,
1073,Gulf Breeze,Gulf Breeze,FL,32563,1421 Tiger Park Ln,
1074,Frenchtown Township,Monroe,MI,48162,2191 North Telegraph Rd,
1075,S. Florence,Florence,SC,29505,1701 Freedom Blvd,
1076,Conyers,Conyers,GA,30013,1901 Georgia Highway 138 S.E.,
1077,Jefferson City,Jefferson City,MO,65109,3441 Missouri Blvd,
1078,N. Kansas City,Kansas City,MO,64154,8601 N. Boardwalk Ave,
1079,Winter Haven,Winter Haven,FL,33880,700 3rd St S.W. / 490 Citi Centre,
1080,Riverdale,Riverdale,UT,84405,4155 South Riverdale Rd,
1081,Lakewood,Lakewood,WA,98499,5115 100th St S.W. Lake,
1082,Yuma,Yuma,AZ,85364,115 West 32nd St,
1083,Rolla,Rolla,MO,65401,2300 North Bishop Ave,
1084,Shawnee,Shawnee,KS,66217,16300 West 65th St,
1085,Harvey,Harvey,LA,70058,1351 Manhattan Blvd,
1086,Modesto,Modesto,CA,95356,3801 Pelandale Ave,
1087,Folsom,Folsom,CA,95630,800 East Bidwell St,
1088,N.W. San Antonio,San Antonio,TX,78250,11333 Bandera Rd,
1089,Auburn,Auburn,WA,98002,1232 A Sreet Northeast,
1090,Gilbert,Gilbert,AZ,85296,734 South Gilbert Rd,
1091,Marion,Marion,OH,43302,1840 Marion Mt. Gilead Rd,
1092,Richmond,Richmond,IN,47374,510 West Eaton Pike,
1093,Muscle Shoals,Muscle Shoals,AL,35661,3415 Woodward Ave,
1094,Danvers,Danvers,MA,1923,153 Andover St,
1095,Knightdale,Knightdale,NC,27545,7316 Knightdale Blvd,
1096,Hollister,Hollister,MO,65672,165 Mall Rd,
1097,Morganton,Morganton,NC,28655,1224 Burkemont Ave,
1098,Independence,Independence,MO,64055,19000 East Valley View Pkwy,
1099,E. Colorado Springs,Colorado Springs,CO,80922,2945 New Center Pt,
1105,N. Ft Wayne,Fort Wayne,IN,46818,6931 North Lima Rd,
1106,North Bergen,North Bergen,NJ,7047,7801 Tonnelle Ave,
1107,New Iberia,New Iberia,LA,70560,2816 Highway 14,
1108,Tigard,Tigard,OR,97223,12615 S.W. 72nd Ave,
1109,Stuart,Stuart,FL,34997,3620 Southeast Federal Highway,
1110,Portage,Portage,MI,49002,5108 South Westnedge Ave,
1111,Boynton Beach,Boynton Beach,FL,33426,1500 Corporate Dr,
1112,S. Charlotte,Charlotte,NC,28277,5310 Ballantyne Commons Pkwy,
1113,Sunrise,Sunrise,FL,33351,8050 West Oakland Park Blvd,
1114,Wood Village,Wood Village,OR,97060,1000 Ne Wood Village Blvd,
1115,Guntersville,Guntersville,AL,35976,11190 U.S. Highway 431 South,
1116,S.W. Augusta,Augusta,GA,30906,3214 Peach Orchard Rd,
1117,Peoria,Peoria,AZ,85381,8497 West Thunderbird Rd,
1118,St. George,Saint George,UT,84790,415 South River Rd,
1119,Chamblee,Chamblee,GA,30341,4950 Peachtree Industrial Blvd,
1120,Florence,Florence,SC,29501,2301 David H. Mcleod Blvd,
1121,Grandville,Grandville,MI,49418,4705 Canal Ave,
1122,New Carrollton,New Carrollton,MD,20784,7710 Riverdale Rd,
1123,Russell,Ashland,KY,41101,350 Diedrich Blvd,
1124,S.E. Charlotte,Matthews,NC,28105,2115 Matthews Township Pkwy,
1125,Sterling,Sterling,VA,20166,45430 Dulles Crossing Plaza,
1126,Suffolk,Suffolk,VA,23434,1216 N. Main St,
1127,W. Lancaster,Lancaster,PA,17603,25 Rohrerstown Rd,
1128,S.E. Houston,Houston,TX,77087,1000 Gulfgate Center Mall,
1130,Union Township,New Castle,PA,16101,2640 West State St,
1131,Royal Oaks,Houston,TX,77077,2610 Kirkwood Dr,
1132,Union City,Union City,CA,94587,32040 Union Landing Blvd.,
1133,West Valley City,West Valley City,UT,84120,4050 South 5600 West,
1134,Yukon,Yukon,OK,73099,1605 South Garth Brooks Blvd,
1135,Avon,Avon,IN,46123,7893 East U.S. Highway 36,
1136,Clinton,Clinton,MD,20735,8755 Branch Ave,
1137,N. El Paso,El Paso,TX,79924,4531 Woodrow Bean - Transmountain Rd,
1138,S. Wilmington,Wilmington,NC,28412,5110 S. College Rd,
1139,Macedonia,Northfield,OH,44067,8224 Golden Link Blvd,
1140,Oviedo,Oviedo,FL,32765,1155 Vidina Pl,
1141,Kernersville,Kernersville,NC,27284,145 Harmon Creek Rd,
1142,S.W. Pensacola,Pensacola,FL,32505,4301 West Fairfield Dr,
1143,Vacaville,Vacaville,CA,95688,1751 East Monte Vista Ave,
1144,Burbank,Burbank,CA,91504,2000 Empire Ave,
1145,E. Houston,Houston,TX,77049,6161 E. Sam Houston Pkwy N.,
1146,E. El Paso,El Paso,TX,79936,11950 Rojas Dr,
1147,Osage Beach,Osage Beach,MO,65065,950 Highway 42,
1148,Elk Grove,Elk Grove,CA,95624,8369 Power Inn Rd,
1149,Lawnside,Lawnside,NJ,8045,122 West Oak Ave,
1150,Livermore,Livermore,CA,94551,4255 First St,
1151,Port Arthur,Port Arthur,TX,77640,8383 Memorial Blvd,
1152,W. El Paso,El Paso,TX,79912,430 East Redd Rd,
1153,Mcdonough,Mcdonough,GA,30253,101 Willow Ln,
1155,N.W. Central San Antonio,San Antonio,TX,78229,7901 Callaghan Rd,
1156,N. Chesterfield,Chesterfield,MI,48051,27990 23 Mile Rd,
1157,Prescott,Prescott,AZ,86301,2300 East State Route 69,
1158,Las Cruces,Las Cruces,NM,88001,3200 North Main St,
1159,Central Omaha,Omaha,NE,68114,7525 Dodge St,
1160,S.E. Cincinnati,Cincinnati,OH,45245,618 Mount Moriah Dr,
1161,Waterford Lake,Orlando,FL,32825,12200 Lake Underhill Rd,
1162,West Hills,West Hills,CA,91304,8383 Topanga Canyon Blvd,
1163,S.E. Memphis,Memphis,TN,38125,7895 Winchester Rd,
1164,Wytheville,Wytheville,VA,24382,185 Dominion St,
1165,Norman,Norman,OK,73069,2555 Hemphill Dr,
1166,Columbus,Columbus,MS,39705,2301 Woodmont Dr,
1167,Olympia,Olympia,WA,98516,4230 Martin Way East,
1168,Mooresville,Mooresville,IN,46158,851 Bridge St,
1170,San Dimas,San Dimas,CA,91773,633 West Bonita Ave,
1174,Brockton,Brockton,MA,2301,135 West Gate Dr,
1175,Central Columbus,Columbus,OH,43211,2345 Silver Dr,
1176,Decatur,Decatur,AL,35601,1641 Beltline Rd SW,
1177,Colonie,Latham,NY,12110,790 Loudon Rd,
1180,Lee's Summit,Lees Summit,MO,64081,1830 Northwest Chipman Rd,
1181,Prattville,Prattville,AL,36066,2307 Cobbs Ford Rd,
1184,S.W. Omaha,Omaha,NE,68130,18375 Wright St,
1185,W. Windsor,Princeton,NJ,8540,3504 Brunswick Pike,
1186,Hampton,Hampton,VA,23666,2002 Power Plant Pkwy,
1187,E. Bartlett,Bartlett,TN,38133,8300 Highway 64,
1188,Laurel,Laurel,MD,20707,14300 Baltimore Ave,
1189,Medford,Medford,NY,11763,2796 Route 112,
1190,Pinellas Park,Pinellas Park,FL,33781,7301 Park Blvd,
1191,Noblesville,Noblesville,IN,46060,16800 Mercantile Blvd,
1192,Orangeburg,Orangeburg,NY,10962,206 Route 303,
1193,East Peoria,East Peoria,IL,61611,201 Riverside Dr,
1195,Plattsburgh,Plattsburgh,NY,12901,39 Centre Dr,
1196,Athens,Athens,TN,37303,1751 South Congress Pkwy,
1197,Warwick,Warwick,RI,2886,510 Quaker Ln,
1198,Woburn,Woburn,MA,1801,15 Commerce Way,
1199,Allen,Allen,TX,75013,1010 West Mcdermott Dr,
1200,Robinson Township,Pittsburgh,PA,15275,400 Davis Blvd,
1201,Chico,Chico,CA,95928,2350 Forest Ave,
1202,Greeneville,Greeneville,TN,37745,2375 East Andrew Johnson Highway,
1203,Bloomington,Bloomington,IL,61704,2101 East Empire St,
1204,N. Phoenix,Phoenix,AZ,85053,2929 W. Thunderbird Rd,
1205,Southgate,Southgate,MI,48195,16410 Trenton Rd,
1206,Worcester,Worcester,MA,1605,533 Lincoln St,
1207,N. Roseville,Roseville,CA,95678,10201 Fairway Dr,
1209,Sikeston,Sikeston,MO,63801,1240 S. Main St,
1210,Reidsville,Reidsville,NC,27320,5201 U.S. 29 Business,
1211,E. Columbus,Columbus,OH,43213,3616 East Broad St,
1500,Owasso,Owasso,OK,74055,12001 E. 96th St North,
1501,Logan,Logan,UT,84341,313 E. 1400 North,
1502,Binghamton,Binghamton,NY,13901,1318 Upper Front St,
1503,Ballwin,Ballwin,MO,63011,14810 Manchester Rd,
1504,W. San Antonio,San Antonio,TX,78245,203 Loop 410 S.W.,
1505,Cranston,Cranston,RI,2920,247 Garfield Ave,
1506,Rockledge,Rockledge,FL,32955,3790 Fiske Blvd,
1507,Norcross,Norcross,GA,30071,2035 Beaver Ruin Rd,
1508,Tifton,Tifton,GA,31793,2000 Us Highway 82 West,
1509,Lenoir,Lenoir,NC,28645,1201 Hickory Blvd S.E.,
1510,Santa Clarita,Santa Clarita,CA,91350,26415 Bouquet Canyon Rd,
1511,Mansfield,Mansfield,TX,76063,1901 U.S. Highway 287,
1512,Mt. Olive,Flanders,NJ,7836,20 International Dr South,
1513,Rome,Rome,GA,30165,2338 Shorter Ave N.W.,
1514,N.E. Grand Rapids,Grand Rapids,MI,49525,4297 Plainfield Ave N.E.,
1515,The Woodlands,Conroe,TX,77384,3052 College Park Dr,
1516,Columbus,Columbus,IN,47201,3500 10th St,
1517,Kentwood,Kentwood,MI,49512,3330 28th St South East,
1518,S. Louisville,Louisville,KY,40229,9800 Preston Crossing Blvd,
1519,Ashtabula,Ashtabula,OH,44004,2416 Dillon Dr,
1520,N.W. Omaha,Omaha,NE,68116,3333 N. 147th St,
1521,Beaufort,Beaufort,SC,29906,207 Robert Smalls Pkwy,
1522,Boone,Boone,NC,28607,1855 Blowing Rock Rd,
1523,Troy,Troy,OH,45373,2000 West Main St,
1524,Keller,Keller,TX,76248,600 N. Tarrant Pkwy,
1525,Carmel,Carmel,IN,46033,14598 Lowes Way,
1526,Germantown Parkway,Cordova,TN,38018,430 S. Germantown Pkwy,
1527,Greenville,Greenville,MS,38701,1886 Dr. Martin Luther King Jr. Blvd,
1528,Lexington,Lexington,VA,24450,1255 North Lee Highway,
1529,Albemarle,Albemarle,NC,28001,814-14 N.C. 24-27 Bypass East,
1530,Atascocita,Humble,TX,77346,7355 Fm 1960 Rd East,
1531,Bessemer,Bessemer,AL,35020,1201 19th St North,
1532,Bixby,Bixby,OK,74008,11114 South Memorial Dr,
1533,Bluffton,Bluffton,SC,29910,35 Malphrus Rd,
1534,Bremerton,Bremerton,WA,98311,5600 State Highway 303 N.E.,
1535,Brick Township,Brick,NJ,8723,520 Route 70,
1536,Broken Arrow,Broken Arrow,OK,74012,1900 East Hillside Dr,
1537,C. Henderson,Henderson,NV,89015,1401 South Boulder Highway,
1538,Chantilly,Chantilly,VA,20151,13856 Metrotech Dr,
1539,Cheyenne,Cheyenne,WY,82009,1608 Prairie Ave,
1540,Citrus Heights,Citrus Heights,CA,95610,7840 Greenback Ln,
1541,Clovis,Clovis,CA,93612,875 Shaw Ave,
1542,Deptford,Deptford,NJ,8096,1480 Clements Bridge Rd,
1543,E. Albuquerque,Albuquerque,NM,87111,3010 Juan Tabo Blvd N.E.,
1544,E. Knoxville,Knoxville,TN,37924,3100 South Mall Rd,
1545,E. Stockton,Stockton,CA,95212,3645 East Hammer Ln,
1546,E. Virginia Beach,Virginia Beach,VA,23454,2403 Virginia Beach Blvd,
1547,E. Wichita,Wichita,KS,67207,11959 East Kellogg Dr,
1548,Eatontown,Eatontown,NJ,7724,118 Highway 35,
1549,Edmond,Edmond,OK,73034,1320 East 2nd St,
1551,Gaylord,Gaylord,MI,49735,600 Edelweiss Village Pkwy,
1552,Gilroy,Gilroy,CA,95020,7151 Camino Arroyo,
1553,Goodyear,Goodyear,AZ,85338,13191 West Mcdowell Rd,
1554,Grand Junction,Grand Junction,CO,81505,2525 Rimrock Ave,
1555,Hawthorne,Hawthorne,CA,90250,2800 120th St,
1556,Hemet,Hemet,CA,92545,350 South Sanderson Ave,
1557,Hickory,Hickory,NC,28602,1550 21st Street Dr S.E.,
1558,Hillsboro,Hillsboro,OR,97123,1951 S.E. 24th Ave,
1559,Salina,Salina,KS,67401,3035 South 9th St,
1560,Kerrville,Kerrville,TX,78028,651 Loop 534,
1561,Kona,Kailua Kona,HI,96740,75-5677 Hale Kapili St,
1562,La Habra,La Habra,CA,90631,1380 South Beach Blvd,
1563,Laredo,Laredo,TX,78041,6623 San Dario Ave,
1564,Thomasville,Thomasville,GA,31792,13911 U.S. Highway 19 South,
1565,Liberty,Liberty,MO,64068,1920 North Stewart Rd,
1566,Marietta,Marietta,OH,45750,842 Pike St,
1567,Marlboro,Morganville,NJ,7751,57 U.S. Highway 9 South,
1568,Meridian,Meridian,MS,39301,100 15th Place South,
1569,Merrillville,Merrillville,IN,46410,1520 East 79th Ave,
1570,Meyerland,Houston,TX,77096,4645 Beechnut St,
1571,Middletown,Middletown,DE,19709,500 West Main St,
1572,Middletown Township,Langhorne,PA,19047,1400 East Lincoln Highway,
1573,Mill Creek,Mill Creek,WA,98012,2002 132nd St S.E.,
1574,Moreno Valley,Moreno Valley,CA,92553,12400 Day St,
1575,Mt. Holly,Lumberton,NJ,8048,1520 Route 38, Building 10
1576,Murrieta,Murrieta,CA,92562,24701 Madison Ave,
1577,N. Huntsville,Huntsville,AL,35810,3505 North Memorial Pkwy N.W.,
1579,N. San Antonio,San Antonio,TX,78248,1200 North F.M. 1604 West,
1580,Tulsa-midtown,Tulsa,OK,74112,1525 South Yale Ave,
1581,Webster,Webster,NY,14580,900 Five Mile Line Rd,
1582,Lake Worth,Fort Worth,TX,76135,3500 North West Centre Dr,
1583,N.W. Staten Island,Staten Island,NY,10303,2171 Forest Ave,
1584,Newburgh,Newburgh,NY,12550,1239 Route 300,
1585,Norwood,Cincinnati,OH,45213,5385 Ridge Ave,
1588,Oceanside,Oceanside,CA,92057,155 Old Grove Rd,
1590,Phillipsburg,Phillipsburg,NJ,8865,1325 U.S. Route 22,
1591,Pico Rivera,Pico Rivera,CA,90660,8600 Washington Blvd,
1592,Plant City,Plant City,FL,33566,2801 James L. Redman Pkwy,
1593,Portsmouth,Portsmouth,VA,23701,4040 Victory Blvd,
1595,S. Columbus,Columbus,OH,43207,3899 South High St,
1596,S. Lansing,Lansing,MI,48911,6821 South Cedar St,
1597,S. Staten Island,Staten Island,NY,10309,2790 Arthur Kill Rd,
1598,S.E. Orlando,Orlando,FL,32822,3500 South Semoran Blvd,
1599,S.W. Mobile,Mobile,AL,36619,4401 Rangeline Rd,
1600,Salem,Salem,OR,97302,1930 Turner Rd Southeast,
1601,Schererville,Schererville,IN,46375,637 U.S. Highway 41,
1602,Dale City,Woodbridge,VA,22192,13720 Smoketown Rd,
1603,Snellville,Snellville,GA,30078,1615 Scenic Highway,
1604,Southfield,Southfield,MI,48034,28650 Telegraph Rd,
1605,Spring Hill,Spring Hill,FL,34606,4780 Commercial Way,
1606,Streetsboro,Streetsboro,OH,44241,1210 State Route 303,
1607,Surprise,Surprise,AZ,85374,13363 W. Grand Ave,
1608,Toms River,Toms River,NJ,8753,1375 Hooper Ave,
1609,Traverse City,Traverse City,MI,49684,3150 North U.S. 31 South,
1610,Vincennes,Vincennes,IN,47591,2700 North 6th St,
1611,Visalia,Visalia,CA,93277,4144 South Mooney Blvd,
1612,Niskayuna,Schenectady,NY,12304,422 Balltown Rd,
1613,W. Jordan,West Jordan,UT,84084,7456 South Plaza Center Dr,
1614,Sylvania Township,Toledo,OH,43617,7000 Central Ave,
1615,Warsaw,Warsaw,IN,46582,2495 Jalynn St,
1616,Vista,Vista,CA,92083,151 Vista Village Dr,
1617,Waycross,Waycross,GA,31501,2308 Memorial Dr,
1618,Weymouth,Weymouth,MA,2191,729 Bridge St,
1619,White Settlement,Fort Worth,TX,76114,600 State Highway 183,
1620,Sunrise,Las Vegas,NV,89104,2875 E. Charleston Blvd,
1621,Mentor,Mentor,OH,44060,9600 Mentor Ave,
1622,Danville,Danville,KY,40422,51 May Blvd,
1623,S. Kansas City,Kansas City,MO,64145,1700 West 133rd St,
1624,Garden City,Garden City,NY,11530,700 Dibblee Dr,
1625,N.E. San Antonio,San Antonio,TX,78233,11718 I.H. 35 North,
1626,Smyrna,Smyrna,TN,37167,410 Genie Ln,
1627,N. Little Rock,North Little Rock,AR,72117,4330 East Mccain Blvd,
1628,Pine Bluff,Pine Bluff,AR,71601,2906A East Harding Ave,
1629,S. Tampa,Tampa,FL,33611,4210 South Dale Mabry Highway,
1630,Lakewood,Littleton,CO,80123,5258 South Wadsworth Blvd,
1631,Bellingham,Bellingham,WA,98226,1050 East Sunset Dr,
1632,E. Vancouver,Vancouver,WA,98662,11413 Northeast 76th St,
1633,S. Anchorage,Anchorage,AK,99515,10900 Old Seward Highway,
1634,Rapid City,Rapid City,SD,57701,2550 Haines Ave,
1635,Seneca,Seneca,SC,29678,195 Bilo Pl,
1636,N.W. Albuquerque,Albuquerque,NM,87114,3500 NM 528 NW,
1637,Maple Shade,Maple Shade,NJ,8052,2834 Route 73 North,
1638,C. Tucson,Tucson,AZ,85705,4151 North Oracle Rd,
1639,C. Las Vegas,Las Vegas,NV,89102,4625 West Charleston Blvd,
1640,Gadsden,Gadsden,AL,35903,615 George Wallace Dr,
1641,Clarksburg,Clarksburg,WV,26301,494 Emily Dr,
1642,Willoughby,Willoughby,OH,44094,36300 Euclid Ave,
1643,S.W. Toledo,Toledo,OH,43615,5501 Airport Highway,
1644,Milledgeville,Milledgeville,GA,31061,1731 North Columbia St,
1645,N.E. Central San Antonio,San Antonio,TX,78209,1470 Austin Highway,
1646,Dalton,Dalton,GA,30721,1212 Cleveland Highway,
1647,Fernandina Beach,Fernandina Beach,FL,32034,474283 East State Road 200,
1648,Washington,Washington,MO,63090,2023 Washington Crossing,
1649,Perrysburg,Perrysburg,OH,43551,10295 Fremont Pike,
1650,Fargo,Fargo,ND,58103,5001 13th Ave S.W.,
1651,Acworth,Kennesaw,GA,30152,3250 Cobb Pkwy,
1652,N. Kissimmee,Kissimmee,FL,34741,1300 Osceola Pkwy West,
1653,Elkin,Elkin,NC,28621,492 CC Camp Rd,
1654,W. Erie,Erie,PA,16506,2305 Asbury Rd,
1655,Greece,Rochester,NY,14626,3150 West Rdg Rd,
1656,Hillsborough,Hillsborough,NJ,8844,315 Route 206 Suite 600,
1657,Sanford,Sanford,FL,32773,3780 Orlando Dr,
1658,Woodbridge,Woodbridge,NJ,7095,51 Woodbridge Center Dr,
1659,N. Toledo,Toledo,OH,43612,1136 West Alexis Rd,
1660,Monroeville,Monroeville,PA,15146,4200 William Penn Highway,
1661,Santee,Santee,CA,92071,9416 Mission Gorge Rd,
1663,Kingston,Kingston,MA,2364,32 William C. Gould Way,
1664,Milford-miami Township,Milford,OH,45150,5694 Romar Dr,
1665,Bloomfield,Bloomfield,CT,6002,325 Cottage Grove Rd,
1666,Hopkinsville,Hopkinsville,KY,42240,4580 Fort Campbell Blvd,
1667,Quakertown,Quakertown,PA,18951,1001 South West End Blvd,
1668,N. Alpharetta,Alpharetta,GA,30004,4925 Windward Pkwy,
1669,Montgomeryville,Lansdale,PA,19446,630 Cowpath Rd,
1670,Delran,Delran,NJ,8075,1331 Fairview Blvd,
1671,S. Morgantown,Morgantown,WV,26501,9595 Mall Rd,
1672,Merced,Merced,CA,95348,1750 West Olive Ave,
1674,Brooklyn,Brooklyn,NY,11215,118 2nd Ave,
1675,Dickson,Dickson,TN,37055,116 Jackson Brothers Blvd,
1676,Howell,Howell,NJ,7731,4975 U.S. Highway 9,
1677,Harper Woods,Harper Woods,MI,48225,19340 Vernier Rd,
1678,Wise County,Wise,VA,24293,201 Woodland Dr S.W.,
1679,N. Springfield,Springfield,IL,62702,2560 North Dirksen Pkwy,
1680,Quincy,Quincy,IL,62305,6030 Broadway St,
1681,Pembroke Pines,Pembroke Pines,FL,33024,130 North University Dr,
1682,Missoula,Missoula,MT,59808,3100 North Reserve St,
1683,Venice,Venice,FL,34293,1745 Tamiami Trail South,
1684,Slidell,Slidell,LA,70461,39184 Natchez Dr,
1685,Lady Lake,Lady Lake,FL,32159,13705 U.S. 441,
1687,Latrobe,Latrobe,PA,15650,200 Colony Ln,
1688,Coralville,Coralville,IA,52241,2701 2nd St,
1689,Clinton,Clinton,NC,28328,911 Sunset Ave,
1690,Bend,Bend,OR,97701,20501 Cooley Rd,
1691,W. Jacksonville,Jacksonville,FL,32205,5155 Lenox Ave,
1692,Lebanon,Lebanon,TN,37087,634 South Cumberland St,
1693,Mcminnville,Mcminnville,OR,97128,1250 S.W. Booth Bend Rd,
1695,Sioux City,Sioux City,IA,51106,5758 Sunnybrook Dr,
1696,Wooster,Wooster,OH,44691,3788 Burbank Rd,
1698,Covington,Covington,LA,70433,1280 North Highway 190,
1699,N.E. Jacksonville,Jacksonville,FL,32225,12945 Atlantic Blvd,
1700,N. Fontana,Fontana,CA,92336,16851 Sierra Lakes Pkwy,
1701,Largo,Largo,FL,33778,11101 Ulmerton Rd,
1702,Pharr,Pharr,TX,78577,707 South Jackson Rd,
1703,W. Spring Valley,Las Vegas,NV,89148,5050 South Fort Apache Rd,
1704,Union City,Union City,TN,38261,800 West Reelfoot Ave,
1705,Conway,Conway,SC,29526,2301 Highway 501 East,
1706,Lodi,Lodi,CA,95242,1389 S. Lower Sacramento Rd,
1707,Marana,Tucson,AZ,85741,4075 West Ina Rd,
1708,S. Bakersfield,Bakersfield,CA,93307,6200 Colony St,
1709,Bay Shore,Bay Shore,NY,11706,800 Sunrise Highway,
1710,Carlisle,Carlisle,PA,17013,850 East High St,
1711,Naperville,Naperville,IL,60564,1440 South Route 59,
1712,Waterloo,Waterloo,IA,50701,400 East Tower Park Dr,
1713,Elizabeth City,Elizabeth City,NC,27909,1605 West Ehringhaus St,
1714,S. Clearwater,Clearwater,FL,33759,2619 Gulf To Bay Blvd,
1715,Camp Creek,East Point,GA,30344,3625 North Commerce Dr,
1716,S. Clinton Township,Clinton Township,MI,48035,35115 South Gratiot Ave,
1717,S. Reading,Sinking Spring,PA,19608,2625 Shillington Rd,
1718,N.W. Greenville,Greenville,SC,29609,1900 Poinsett Highway,
1719,W. Henderson,Las Vegas,NV,89183,9955 South Eastern Ave,
1720,Lake Park,Lake Park,FL,33403,401 North Congress Ave,
1721,Southaven,Southaven,MS,38671,178 Goodman Rd West,
1722,Kinston,Kinston,NC,28504,4489 Highway 70 West,
1723,Gloucester,Gloucester,VA,23061,6659 George Washington Memorial Highway,
1724,Lawton,Lawton,OK,73505,4402 N.W. Cache Rd,
1725,N.E. Austin,Austin,TX,78753,13000 N I-35 SVC Rd SB, Building 12
1726,Inverness,Birmingham,AL,35242,5291 Highway 280 South,
1727,Central Austin,Austin,TX,78757,8000 Shoal Creek Blvd,
1728,Glendale,Glendale,AZ,85301,5809 West Northern Ave,
1729,East Caln Township,Downingtown,PA,19335,1250 Cornerstone Blvd,
1730,S.E. Aurora,Aurora,CO,80015,4455 South Buckley Rd,
1731,Dyersburg,Dyersburg,TN,38024,1155 Highway 51 Bypass West,
1732,Port Charlotte,Port Charlotte,FL,33948,2000 Tamiami Trail,
1733,Griffin,Griffin,GA,30223,1520 Highway 16 West,
1734,C. Ventura,Ventura,CA,93003,500 South Mills Rd,
1735,Madison,Madison,IN,47250,511 Ivy Tech Dr,
1736,Georgetown,Georgetown,KY,40324,109 Magnolia Dr,
1737,Leeds,Leeds,AL,35094,8900 Weaver Ave,
1738,St. Charles,Saint Charles,IL,60174,955 South Randall Rd,
1739,Lake In The Hills,Lake In The Hills,IL,60156,300 North Randall Rd,
1740,Halfmoon,Halfmoon,NY,12065,476 Route 146,
1741,Roseburg,Roseburg,OR,97470,3300 N.W. Aviation Dr,
1742,Eastlake,Chula Vista,CA,91915,2225 Otay Lakes Rd,
1743,Corona,Corona,CA,92879,1285 Magnolia Ave,
1744,Fultondale,Fultondale,AL,35068,1335 Walker Chapel Rd,
1745,Hutchinson,Hutchinson,KS,67501,1930 East 17th Ave,
1746,Farmington,Farmington,MO,63640,625 West Karsch Blvd,
1747,Springfield,Springfield,TN,37172,3480 Tom Austin Highway,
1748,Lincolnwood,Lincolnwood,IL,60712,3601 West Touhy Ave,
1749,Ardmore,Ardmore,OK,73401,2701 12th Ave N.W.,
1750,Scio Township,Ann Arbor,MI,48103,5900 Jackson Rd,
1751,Camden,Camden,SC,29020,11 Bay Ln,
1752,Grove,Grove,OK,74344,2131 South Main St,
1753,Huntington Beach,Huntington Beach,CA,92647,8175 Warner Ave,
1754,E. Tucson,Tucson,AZ,85710,7105 East Speedway Blvd,
1755,Parker,Parker,CO,80134,10000 South Twenty Mile Rd,
1756,S. San Jose,San Jose,CA,95123,5550 Cottle Rd,
1757,Batesville,Batesville,MS,38606,1135 Highway 6 East,
1758,Pembroke,Pembroke,MA,2359,108 Old Church St,
1759,Easton,Easton,PA,18045,4443 Birkland Pl,
1760,South Boston,South Boston,VA,24592,3603 Old Halifax Rd,
1761,Alamogordo,Alamogordo,NM,88310,4201 North Scenic Dr,
1762,Marshall,Marshall,TX,75670,910 East End Blvd North,
1763,Kingsville,Kingsville,TX,78363,1420 East General Cavazos Blvd,
1764,E. Roanoke,Roanoke,VA,24012,4520 Challenger Ave,
1765,Mt. Vernon,Mount Vernon,OH,43050,1010 Coshocton Ave,
1766,Jacksonville,Jacksonville,AR,72076,2301 T.P. White Dr,
1767,Shelbyville,Shelbyville,TN,37160,1734 North Main St,
1768,Green,Akron,OH,44312,940 Interstate Pkwy,
1769,Jasper,Jasper,TX,75951,900 West Gibson,
1770,Campbellsville,Campbellsville,KY,42718,205 Jefra Ave,
1771,W. Dallas,Dallas,TX,75212,1710 Chalk Hill Rd East,
1772,Nacogdoches,Nacogdoches,TX,75965,220 North Stallings Dr,
1773,Bluffton,Bluffton,IN,46714,2105 North Main St,
1774,Mccomb,Mccomb,MS,39648,1802 Pikes Point Cir,
1775,Searcy,Searcy,AR,72143,3701 East Race Ave,
1776,York,York,SC,29745,1010 East Liberty St,
1777,Erwin,Erwin,NC,28339,524 East Jackson Blvd,
1778,Portage,Portage,IN,46368,6221 U.S. Highway 6,
1779,Sterling Heights,Sterling Height,MI,48310,2000 Metropolitan Pkwy,
1780,N.E. Dallas,Dallas,TX,75238,11333 E. Northwest Highway,
1781,Clovis,Clovis,NM,88101,3601 North Prince St,
1782,Crestview,Crestview,FL,32536,298 Rasberry Rd,
1783,Douglas,Douglas,GA,31533,1340 S.E. Bowens Mill Rd,
1784,Glenmont,Glenmont,NY,12077,271 Route 9 West,
1785,Nampa,Nampa,ID,83651,1400 Nampa-Caldwell Blvd,
1786,FT. Payne,Fort Payne,AL,35968,1600 Glenn Blvd S.W.,
1787,Vidalia,Vidalia,GA,30474,3209 East First St,
1788,Forest City,Forest City,NC,28043,184 Lowe's Blvd,
1789,Paris,Paris,TN,38242,117 Memorial Dr,
1790,Livingston,Livingston,TX,77351,120 U.S. 59 Loop South,
1791,S.W. Tucson,Tucson,AZ,85746,1800 West Valencia Rd,
1792,Pompano Beach,Pompano Beach,FL,33062,1851 North Federal Highway,
1793,E. Ellijay,East Ellijay,GA,30540,380 Highland Crossing,
1794,Valdosta,Valdosta,GA,31601,1106 North St. Augustine Rd,
1795,Glen Carbon,Glen Carbon,IL,62034,159 Whistle Stop Dr,
1796,Glasgow,Glasgow,KY,42141,208 Sl Rogers Wells Blvd,
1797,Paintsville,Paintsville,KY,41240,527 North Mayo Trail,
1798,Wake Forest,Wake Forest,NC,27587,11800 Galaxy Dr,
1799,Athens,Athens,AL,35611,1109 U.S. Highway 72 East,
1800,Harriman,Harriman,TN,37748,1800 Roane State Highway,
1801,Gun Barrel City,Gun Barrel City,TX,75156,201 West Main St,
1802,Mt. Pleasant,Mount Pleasant,TX,75455,1220 Lakewood Dr,
1803,Culpeper,Culpeper,VA,22701,15150 Montanus Dr,
1805,Buckhannon,Buckhannon,WV,26201,40 Clarksburg Rd,
1806,S. Fayetteville,Fayetteville,AR,72704,3231 W. Martin Luther King Blvd,
1807,Sandy Springs,Sandy Springs,GA,30328,5925 Roswell Rd N.E.,
1808,Morehead,Morehead,KY,40351,100 Kroger Center,
1809,Festus,Festus,MO,63028,1111 Bradley St,
1810,Sulphur Springs,Sulphur Springs,TX,75482,1711 South Broadway St,
1811,Irving,Irving,TX,75062,3500 West Airport Freeway,
1812,Greeley,Greeley,CO,80634,2400 47th Ave,
1813,Bossier City,Bossier City,LA,71111,2360 Airline Dr,
1814,Commerce Township,Commerce Township,MI,48390,2745 West Maple Rd,
1815,Roanoke Rapids,Roanoke Rapids,NC,27870,1600 Julian Allsbrook Highway,
1816,Millville,Millville,NJ,8332,113 Bluebird Ln,
1817,Canandaigua,Canandaigua,NY,14424,4200 Recreation Dr,
1818,Tahlequah,Tahlequah,OK,74464,161 Meadow Creek Dr,
1819,Hazard,Hazard,KY,41701,81 Commerce Dr,
1820,Palatka,Palatka,FL,32177,500 North State Rd 19,
1821,Carol Stream,Carol Stream,IL,60188,400 West Army Trail,
1822,Opelousas,Opelousas,LA,70570,1130 East Landry St,
1823,White Lake,White Lake,MI,48386,8550 Highland Rd,
1824,Clackamas County,Milwaukie,OR,97222,13631 S.E. Johnson Rd,
1825,Corpus Christi,Corpus Christi,TX,78412,1530 Airline Rd,
1826,Springdale,Springdale,AR,72762,4233 West Sunset Ave,
1827,Brooksville,Brooksville,FL,34601,7117 Broad St,
1828,Orland Park,Orland Park,IL,60462,15601 South Lagrange Rd,
1829,Gurnee,Gurnee,IL,60031,7735 West Grand Ave,
1830,Kansas City,Kansas City,KS,66102,6920 State Ave,
1831,Westborough,Westborough,MA,1581,260-266 Turnpike Rd,
1832,N. Dartmouth,N. Dartmouth,MA,2747,55 Faunce Corner Rd,
1833,Coon Rapids,Coon Rapids,MN,55448,2700 Main St,
1834,Banner Elk,Banner Elk,NC,28604,2014 Tynecastle Highway,
1835,N. Cary,Cary,NC,27513,1920 N.W. Maynard Rd,
1836,W. Summerlin,Las Vegas,NV,89144,851 South Pavilion Center Dr,
1837,Upper Moreland,Willow Grove,PA,19090,4055 Welsh Rd,
1838,Claypool Hill,Pounding Mill,VA,24637,4375 Indian Paint Rd,
1839,Madison Heights,Madison Heights,VA,24572,150 River James Shopping Center,
1841,N.W. Miami-dade,Hialeah,FL,33015,17460 Northwest 57th Ave,
1842,S. Central Jacksonville,Jacksonville,FL,32256,8054 Philips Highway,
1843,Central Bradenton,Bradenton,FL,34205,4012 14th St West,
1845,Chicago-Brickyard,Chicago,IL,60639,2630 N. Narragansett Ave,
1847,Canton,Canton,MI,48187,44080 Ford Rd,
1848,N.E. Philadelphia,Philadelphia,PA,19114,9701 East Roosevelt Blvd,
1849,S. Philadelphia,Philadelphia,PA,19148,2106 S. Christopher Columbus Blvd,
1850,S. Scottsdale,Scottsdale,AZ,85257,7950 East Mcdowell Rd,
1852,Pacoima,Pacoima,CA,91331,13500 Paxton St,
1853,Inverness,Inverness,FL,34453,2301 East Gulf To Lake Highway,
1854,Zephyrhills,Zephyrhills,FL,33541,7921 Gall Blvd,
1855,E. Ocala,Ocala,FL,34470,4600 East Silver Springs Blvd,
1856,Hinesville,Hinesville,GA,31313,735 West Oglethorpe Highway,
1857,Raynham,Raynham,MA,2767,850 Route 44,
1858,Leominster,Leominster,MA,1453,198 New Lancaster Rd,
1859,Allen Park,Allen Park,MI,48101,23111 Outer Dr,
1860,Niles,Niles,MI,49120,2055 South 11th St,
1861,Cape May,Rio Grande,NJ,8242,3171 Route 9 South,
1862,E. Brunswick,East Brunswick,NJ,8816,339 State Highway Route 18,
1863,N.W. Las Vegas,Las Vegas,NV,89130,6050 West Craig Rd,
1864,Ithaca,Ithaca,NY,14850,130 Fairgrounds Memorial Pkwy,
1865,Rome,Rome,NY,13440,1230 Erie Blvd West,
1866,Athens,Athens,OH,45701,983 East State St,
1867,Bethlehem,Bethlehem,PA,18018,1235 Martin Ct,
1868,Bloomsburg,Bloomsburg,PA,17815,50 Lunger Dr,
1869,Millington,Millington,TN,38053,8490 Highway 51 North,
1870,Gainesville,Gainesville,VA,20155,13000 Gateway Center Dr,
1871,Vallejo,Vallejo,CA,94591,401 Columbus Pkwy,
1872,Puente Hills,City Of Industry,CA,91748,17789 Castleton St,
1873,Northridge,Northridge,CA,91324,19601 West Nordhoff St,
1874,Longmont,Longmont,CO,80501,355 Ken Pratt Blvd,
1875,Atlanta-Edgewood,Atlanta,GA,30307,1280 Caroline St N.E.,
1877,Jefferson Highway,Jefferson,LA,70121,121 Jefferson Highway,
1878,Apex,Apex,NC,27502,1101 Beaver Creek Commons Dr,
1879,Greenland,Greenland,NH,3840,1440 Greenland Rd,
1880,Amsterdam,Amsterdam,NY,12010,4825 State Highway 30,
1881,E. Amherst,Williamsville,NY,14221,8150 Transit Rd,
1882,Orchard Park,Orchard Park,NY,14127,3195 Southwestern Blvd,
1883,W. Amherst,Amherst,NY,14228,1659 Niagara Falls Blvd,
1886,Pottstown,Pottstown,PA,19465,1136 Town Square Rd,
1887,Longview,Longview,WA,98632,2850 Ocean Beach Highway,
1888,Beckley,Beckley,WV,25801,1210 North Eisenhower Dr,
1889,Milford,Milford,MA,1757,40 Fortune Blvd,
1890,Mcminnville,Mc Minnville,TN,37110,1339 Smithville Highway Suite 10
1891,Claremore,Claremore,OK,74019,1746 South Lynn Riggs Blvd,
1892,Palestine,Palestine,TX,75801,2715 South Loop 256,
1893,S. Jackson,Jackson,TN,38301,2071 South Highland Ave,
1894,Bedford,Bedford,IN,47421,3300 16th St,
1895,Fremont,Fremont,CA,94538,43612 Pacific Commons Blvd,
1896,Grand Forks,Grand Forks,ND,58201,4001 32nd Ave South,
1897,Orange Park,Orange Park,FL,32073,2285 Kingsley Ave,
1898,Rosenberg,Rosenberg,TX,77471,28005 Southwest Freeway,
1899,Sulphur,Sulphur,LA,70663,305 South Cities Service Highway,
1900,Aliso Viejo,Aliso Viejo,CA,92656,26501 Aliso Creek Rd,
1901,Cotati,Cotati,CA,94931,7921 Redwood Dr,
1903,N. Lakewood,Lakewood,CO,80215,10555 West Colfax Ave,
1904,Kalispell,Kalispell,MT,59901,2360 Highway 93 North,
1905,Glenwood Springs,Glenwood Springs,CO,81601,215 West Meadows Dr,
1906,Idaho Falls,Idaho Falls,ID,83404,925 E 17th St,
1907,Bedford,Bedford,NH,3110,222 South River Rd,
1908,Oswego,Oswego,NY,13126,445 State Route 104,
1909,Stafford,Stafford,VA,22556,1330 Stafford Market Pl,
1910,Kimball,Kimball,TN,37347,525 Dixie Lee Center Rd,
1911,Riverview,Riverview,FL,33578,10425 Gibsonton Dr,
1913,South Burlington,South Burlington,VT,5403,189 Hannaford Dr,
1914,Dedham,Dedham,MA,2026,306 Providence Highway,
1916,Hadley,Hadley,MA,1035,282 Russell St,
1917,Farmingdale,Farmingdale,NY,11735,90 Price Pkwy,
1920,E. Charlotte,Charlotte,NC,28227,8826 Albemarle Rd,
1922,Marion,Marion,NC,28752,480 U.S. 70 West,
1923,C. Louisville,Louisville,KY,40218,2100 Bashford Manor Ln,
1924,Marianna,Marianna,FL,32448,4860 Malloy Plaza,
1925,Cornelia,Cornelia,GA,30531,281 Carpenters Cove Ln,
1926,Redding,Redding,CA,96002,1200 East Cypress Ave,
1932,Seekonk,Seekonk,MA,2771,1000 Fall River Ave,
1933,Yuba City,Yuba City,CA,95993,935 Tharp Rd,
1934,Mt. Pocono,Mount Pocono,PA,18344,3207 Route 940,
1935,N.E. Sarasota,Sarasota,FL,34232,5750 Fruitville Rd,
1937,Jersey City,Jersey City,NJ,7304,727 Route 440,
1938,Hackettstown,Hackettstown,NJ,7840,217 Mountain Ave,
1939,Union,Union,NJ,7083,1721 Morris Ave,
1940,Bangor,Bangor,ME,4401,70 Springer Dr,
1941,Oxnard,Oxnard,CA,93036,301 West Gonzales Rd,
1942,E. Rutherford,E. Rutherford,NJ,7073,150 Route 17 North,
1944,Somerset,Somerset,PA,15501,1730 North Center Ave,
1945,Deland,Deland,FL,32724,303 International Speedway Blvd,
1946,Portland,Portland,ME,4102,1058 Brighton Ave,
1948,Bee Cave,Bee Cave,TX,78738,12611 Suite 100 Shops Pkwy,
1952,Matamoras,Matamoras,PA,18336,115 Wenlock Rd,
1953,Cortlandville,Cortland,NY,13045,872 Route 13,
1955,Plymouth,Plymouth,MN,55447,3205 Vicksburg Ln North,
1956,Plymouth,Plymouth,IN,46563,1100 Pilgrim Ln,
1957,Butler,Butler,NJ,7405,1210 Route 23 North,
1958,Madison,Madison,GA,30650,1821 Eatonton Highway,
1959,Bluefield,Bluefield,VA,24605,515 Commerce Dr,
1962,West Palm Beach,West Palm Beach,FL,33417,4701 Okeechobee Blvd,
1965,Lindale,Lindale,TX,75771,3200 South Main St,
1966,Maplewood,Maplewood,MO,63143,2300 Maplewood Commons Dr,
1967,Oneonta,Oneonta,NY,13820,5283 State Highway 23,
1968,S.E. Shreveport,Shreveport,LA,71105,7301 Youree Dr,
1969,Weatherford,Weatherford,TX,76087,118 Interstate 20 East,
1971,Simi Valley,Simi Valley,CA,93065,1275 Simi Town Center Way,
1972,E. Santa Clarita,Santa Clarita,CA,91321,19001 Golden Valley Rd,
1973,Albany-northway Mall,Colonie,NY,12205,1482 Central Ave,
1976,Hampton Township,Newton,NJ,7860,39 Hampton House Rd,
1979,Seabrook,Seabrook,NH,3874,417 Lafayette Rd,
1980,Bensalem,Trevose,PA,19053,3421 Horizon Blvd,
1982,Easton,Easton,MD,21601,501 Glebe Rd,
1983,Greenville,Greenville,SC,29607,1131 Woodruff Rd,
1984,Princeton,Princeton,WV,24740,1155 Oakvale Rd,
1985,Fairbanks,Fairbanks,AK,99701,425 Merhar Ave,
1986,Boiling Springs,Boiling Springs,SC,29316,170 Rainbow Lake Rd,
1987,Lake Elsinore,Lake Elsinore,CA,92532,29335 Central Ave,
1988,Olive Branch,Olive Branch,MS,38654,8370 Camp Creek Blvd,
1989,Westminster,Westminster,CO,80031,5600 West 88th Ave,
1990,Brevard,Brevard,NC,28712,119 Ecusta Rd,
2201,S. Asheville,Arden,NC,28704,19 Mckenna Rd,
2202,Bullhead City,Bullhead City,AZ,86442,1680 Highway 95,
2203,Crowley,Crowley,LA,70526,142 Julia John Dr,
2204,E. Athens,Athens,GA,30605,3341 Lexington Rd,
2205,Fayetteville,Fayetteville,WV,25840,46 Fayette Town Center Rd,
2206,Manitowoc,Manitowoc,WI,54220,4401 Dewey St,
2207,N. Augusta,North Augusta,SC,29841,1220 Knox Ave,
2208,Philadelphia,Philadelphia,MS,39350,1105 Central Dr,
2209,Presque Isle,Presque Isle,ME,4769,135 Maysville St,
2210,Roxboro,Roxboro,NC,27573,2044 Durham Rd,
2211,Sunnyvale,Sunnyvale,CA,94085,811 East Arques Ave,
2212,Troy,Troy,AL,36081,1421 U.S. Highway 231 South,
2213,Wadsworth,Wadsworth,OH,44281,1065 Williams Reserve Blvd,
2214,Durant,Durant,OK,74701,720 University Pl,
2215,Hanford,Hanford,CA,93230,1955 West Lacey Blvd,
2216,Lewistown,Lewistown,PA,17044,10472 Us Highway 522 South,
2217,Rocky Mount,Rocky Mount,VA,24151,800 Old Franklin Turnpike,
2218,Savannah,Savannah,TN,38372,1895 Wayne Rd,
2219,N.E. Pittsburgh,Tarentum,PA,15084,1005 Village Center Dr,
2220,Cleburne,Cleburne,TX,76033,2100 North Main St,
2221,N.E. FT. Myers,Ft. Myers,FL,33966,8040 Dani Dr,
2222,S.E. Greensboro,Greensboro,NC,27406,109 West Elmsley Dr,
2223,Mechanicsburg,Mechanicsburg,PA,17050,5500 Carlisle Pike,
2224,Sebring,Sebring,FL,33870,2050 U.S. 27 North,
2225,Granbury,Granbury,TX,76048,1021 East Highway 377,
2226,Ozark,Ozark,MO,65721,1800 West Marler Ln,
2227,N. Stockton,Stockton,CA,95219,10342 Trinity Pkwy,
2228,Waynesboro,Waynesboro,PA,17268,12925 Washington Township Blvd,
2229,Lock Haven,Mill Hall,PA,17751,284 Hogan Blvd,
2230,N. Bentonville,Bentonville,AR,72712,1100 N.W. Lowes Ave,
2231,Cedar Rapids,Cedar Rapids,IA,52402,5300 Blairs Forest Blvd N.E.,
2232,S. Dekalb-lithonia,Lithonia,GA,30038,5375 Fairington Rd,
2233,Stony Brook,Stony Brook,NY,11790,2150 Nesconset Highway,
2234,Leesville,Leesville,LA,71446,2200 Mcrae St,
2235,Decatur,Decatur,TX,76234,1201 West U.S. Highway 380 Business,
2236,Mountain Home,Mountain Home,AR,72653,124 Charles Blackburn Dr,
2237,Memphis,Memphis,TN,38122,585 North Perkins Rd,
2238,Lutz,Lutz,FL,33549,21500 State Rd 54,
2239,S. Knoxville,Knoxville,TN,37920,7520 Mountain Grove Dr,
2240,Lake Wales,Lake Wales,FL,33859,23227 U.S. Highway 27,
2241,Palm Coast,Palm Coast,FL,32164,315 Cypress Edge Dr,
2244,Columbia,Elkridge,MD,21075,8281 Gateway Overlook Dr,
2245,N.E. Louisville,Louisville,KY,40241,4930 Norton Healthcare Blvd,
2246,S. Parkersburg,Parkersburg,WV,26101,2 Walton Dr,
2247,Bethel Park,Bethel Park,PA,15102,5775 Baptist Rd,
2248,Seaford,Seaford,DE,19973,22880 Sussex Highway,
2249,Clarkstown,Nanuet,NY,10954,100 Overlook Blvd,
2250,Potsdam,Potsdam,NY,13676,61 Country Ln,
2251,Daphne,Daphne,AL,36526,29645 Frederick Blvd,
2252,Stroudsburg,Bartonsville,PA,18321,5027 Windsor Dr,
2253,N. Lakeland,Lakeland,FL,33809,3600 North Rd 98,
2254,Hialeah,Hialeah,FL,33012,1650 West 37th St,
2255,W. Jefferson,W. Jefferson,NC,28694,158 Lowe's Dr,
2256,Surf City,Hampstead,NC,28443,106 Wilkes Ln,
2257,Sylva,Sylva,NC,28779,1716 East Main St,
2258,Newark,Newark,DE,19711,2000 Ogletown Rd,
2260,Manahawkin,Manahawkin,NJ,8050,297 Route 72 West Suite 30
2261,S. Naples,Naples,FL,34113,12730 Tamiami Trail East,
2263,Waterford,Waterford,CT,6385,167 Waterford Pkwy North,
2265,Augusta,Augusta,ME,4330,53 Crossing Way,
2267,Quincy,Quincy,MA,2169,599 Thomas Burgin Pkwy,
2268,W. Torrance,Torrance,CA,90505,2700 Skypark Dr,
2270,Ontario,Ontario,CA,91761,2390 South Grove Ave,
2271,Las Vegas,Las Vegas,NV,89119,5825 South Eastern Ave,
2272,Casa Grande,Casa Grande,AZ,85122,1436 East Florence Blvd,
2273,Dublin,Dublin,CA,94568,3750 Dublin Blvd,
2274,Castle Rock,Castle Rock,CO,80108,1360 New Beale St,
2275,Salt Lake City,Salt Lake City,UT,84115,1335 South 300 West,
2277,Helena,Helena,MT,59602,3291 North Sanders St,
2278,Porterville,Porterville,CA,93257,500 West Vandalia Ave,
2279,Sonora,Sonora,CA,95370,120 Old Wards Ferry Rd,
2280,C. Dallas,Dallas,TX,75209,6011 Lemmon Ave,
2282,E. Brandon,Brandon,FL,33511,1515 East Brandon Blvd,
2284,Brooklyn - Kings Plaza,Brooklyn,NY,11234,5602 Ave U,
2288,Wallingford,Wallingford,CT,6492,1094 North Colony Rd,
2289,Oneida,Oneida,NY,13421,1200 Lowe's Dr,
2291,Brewer,Brewer,ME,4412,15 Arista Dr,
2293,Lehi,Lehi,UT,84043,242 North 1200 East,
2294,Menifee,Menifee,CA,92584,30472 Haun Rd,
2295,Buckeye,Buckeye,AZ,85326,700 South Watson Rd,
2296,Riverton,Riverton City,UT,84065,12462 S. Creek Meadow Rd,
2299,Bridgeton,Bridgeton,MO,63044,11974 Paul Mayer Ave,
2300,S. St. Louis,Saint Louis,MO,63111,932 Loughborough Ave,
2301,Chicago - 83rd And Stewart,Chicago,IL,60620,8411 South Holland Rd,
2302,Belleville,Belleville,IL,62221,2501 Greenmount Commons,
2303,Arnold,Arnold,MO,63010,920 Arnold Commons,
2304,Chicago,Chicago,IL,60652,7971 South Cicero,
2305,Rochester Hills,Rochester Hills,MI,48307,3277 South Rochester Rd,
2308,Oshkosh,Oshkosh,WI,54904,1075 North Washburn St,
2309,Wauwatosa,Wauwatosa,WI,53222,12000 West Burleigh St,
2310,Machesney Park,Machesney Park,IL,61115,9700 North Alpine Rd,
2311,Lake St. Louis,Lake Saint Louis,MO,63367,6302 Ronald Reagan Dr,
2312,Madison Heights,Madison Heights,MI,48071,434 West Twelve Mile,
2313,W. St. Paul,West St. Paul,MN,55118,1795 Robert St,
2314,Republic,Republic,MO,65738,1225 U.S. Highway 60 East,
2315,Oak Park Heights,Oak Park Heights,MN,55082,5888 Nova Scotia Ave North,
2318,Ludington,Ludington,MI,49431,4460 West U.S. 10,
2319,Beech Grove,Indianapolis,IN,46203,4444 South Emerson Ave,
2321,Littleton,Littleton,NH,3561,1037 Meadow St,
2322,Gilford,Gilford,NH,3249,1407 Lakeshore Rd,
2326,Lloyd,Highland,NY,12528,650 Route 299,
2327,Derby,Derby,CT,6418,496 New Haven Ave,
2328,Paterson,Paterson,NJ,7504,265 Mclean Blvd,
2330,Mira Loma,Mira Loma,CA,91752,6413 Pats Ranch Rd,
2331,Carlsbad,Carlsbad,CA,92008,2515 Palomar Airport Rd,
2333,Hibbing,Hibbing,MN,55746,12025 Highway 169,
2334,Turlock,Turlock,CA,95380,3303 Entertainment Way,
2335,Martell,Jackson,CA,95642,12071 Industry Blvd,
2336,Iwilei - Honolulu,Honolulu,HI,96817,411 Pacific St,
2338,Western Hills,Cincinnati,OH,45247,6150 Harrison Rd,
2339,Strongsville,Strongsville,OH,44136,9149 Pearl Rd,
2340,N.W. Wichita,Wichita,KS,67205,2626 North Maize Rd,
2341,Rancho Cordova,Rancho Cordova,CA,95670,3251 Zinfandel Dr,
2343,Hillsboro,Hillsboro,OH,45133,107 South Careytown Rd,
2344,Pasco,Pasco,WA,99301,4520 Road 68,
2345,N.E. Lexington,Lexington,KY,40509,2300 Grey Lag Way,
2346,Federal Way,Federal Way,WA,98003,35425 Enchanted Pkwy South,
2348,Central Charlotte,Charlotte,NC,28203,217 Iverson Way,
2349,St. Lucie West,Port St. Lucie,FL,34986,701 NW St. Lucie West Blvd,
2350,Waveland,Waveland,MS,39576,9020 Highway 603,
2351,Indian Harbour Beach,Indian Harbour Beach,FL,32937,1934 Highway A1A,
2352,Charlotte - Northlake Mall,Charlotte,NC,28216,10275 Perimeter Pkwy,
2354,La Plata,La Plata,MD,20646,300 Rosewick Rd,
2355,State College,State College,PA,16803,104 Valley Vista Dr,
2356,Richland County,Columbia,SC,29223,10106 Two Notch Rd,
2357,N. Hagerstown,Hagerstown,MD,21740,12809 Shank Farm Way,
2358,Gaffney,Gaffney,SC,29341,1601 West Floyd Baker Blvd,
2360,N. Tampa,Tampa,FL,33618,12901 N. Dale Mabry Highway,
2361,W. Cape Coral,Cape Coral,FL,33914,285 SW 25th Ln,
2362,Estero,Estero,FL,33928,10070 Estero Town Commons Pl,
2363,Poinciana,Kissimmee,FL,34746,4420 Pleasant Hill Rd,
2364,Deltona,Deltona,FL,32738,2170 Howland Blvd,
2365,N.E. Gainesville,Gainesville,FL,32609,2564 N.W. 13th St,
2366,Evans,Evans,GA,30809,4305 Washington Rd,
2367,Panama City Beach,Panama City Beach,FL,32407,11751 Panama City Beach Pkwy,
2368,N. Concord,Kannapolis,NC,28083,3025 Dale Earnhardt Blvd,
2369,W. Jackson,Jackson,MS,39204,2250 Greenway Dr,
2370,N. Hickory,Hickory,NC,28601,1450 2nd St NE,
2371,Cypress,Cypress,TX,77429,14128 Cypress-Rosehill Rd,
2372,Saugus,Saugus,MA,1906,1500 Broadway,
2374,N. Conway,Conway,NH,3818,32 Mountain Valley Blvd,
2375,Hudson,Hudson,MA,1749,6 Highland Common East,
2376,Wareham,Wareham,MA,2571,2421 Cranberry Highway Suite 100
2378,W. Philadelphia,Philadelphia,PA,19131,1500 North 50th St,
2379,Clay,Liverpool,NY,13090,3856 State Route 31,
2380,Syracuse,Syracuse,NY,13224,131 Simon Dr,
2382,Salem,Salem,NH,3079,541 South Broadway,
2383,Cromwell,Cromwell,CT,6416,90 Berlin Rd,
2384,Framingham,Framingham,MA,1701,350 Cochituate Rd,
2385,Sayre,Sayre,PA,18840,2151 Elmira St,
2386,Ware,Ware,MA,1082,348 Palmer Rd,
2388,Sanford,Sanford,ME,4073,1900 Main St,
2389,Voorhees,Voorhees,NJ,8043,144 Route 73 North,
2391,S. Nashua,Nashua,NH,3060,143 Daniel Webster Highway,
2393,Plainville,Plainville,MA,2762,201 Washington St,
2395,Torrington,Torrington,CT,6790,420 Winsted Rd,
2396,Killingly,Dayville,CT,6241,1150 Killingly Commons Dr,
2397,N. Warwick,Warwick,RI,2886,555 Greenwich Ave,
2399,Norwich,Norwich,NY,13815,5411 State Highway 12,
2400,Herkimer,Herkimer,NY,13350,182 Lowes Blvd,
2401,Ogdensburg,Ogdensburg,NY,13669,2001 Ford Street Extension,
2402,Mantua Township,Sewell,NJ,8080,611 Woodbury Glassboro Rd,
2405,Avondale,Avondale,PA,19311,561 Hepburn Rd,
2407,Scarborough,Scarborough,ME,4074,1000 Gallery Blvd,
2409,W. York,York,PA,17404,1175 Carlisle Rd,
2411,Richland Township,Gibsonia,PA,15044,700 Grandview Crossing Rd,
2412,Edwardsville,Edwardsville,PA,18704,50 West Side Mall,
2414,Pocomoke City,Pocomoke City,MD,21851,275 Newtown Blvd,
2417,Scott Township,Carnegie,PA,15106,2100 Washington Pike,
2418,Ruston,Ruston,LA,71270,809 Morrison Dr,
2419,Littleton,Littleton,CO,80120,5095 S. Santa Fe Dr,
2420,Renton,Renton,WA,98055,1000 Garden Ave North,
2421,S. Phoenix,Phoenix,AZ,85041,1950 West Baseline Rd,
2423,W. Colorado Springs,Colorado Springs,CO,80918,4880 N Nevada Ave,
2424,N.E. Bakersfield,Bakersfield,CA,93305,1601 Columbus St,
2428,Manchester Township,Manchester,NJ,8759,1053 Highway 70,
2429,Wilmington,New Castle,DE,19720,2225 Hessler Blvd,
2431,Paramus,Paramus,NJ,7652,2000 Bergen Town Center,
2432,N. Westminster,Westminster,CO,80023,13650 Orchard Pkwy,
2434,Brockport,Brockport,NY,14420,300 Owens Rd,
2435,Brookings,Brookings,SD,57006,812 25th Ave,
2436,Cape Carteret,Cape Carteret,NC,28584,401 WB Mclean Dr,
2437,Clermont,Clermont,FL,34711,1501 Sandy Grove Ave,
2438,S.W. Orlando,Clermont,FL,34714,16905 Cagan Crossings Blvd,
2440,Euless,Euless,TX,76039,3000 S.H. 121,
2441,Forney,Forney,TX,75126,902 Highway 80,
2442,Fort Mill,Fort Mill,SC,29708,1640 Highway 160 West,
2444,Hornell,Hornell,NY,14843,949 State Route 36,
2448,Pittsboro,Pittsboro,NC,27312,121 Lowe's Dr,
2449,Rochester,Rochester,NH,3839,160 Washington Street Suite 800
2450,Rocky River,Rocky River,OH,44116,20639 Center Rdg Rd,
2451,Se Huntsville,Owens Cross Roads,AL,35763,6584 Us Highway 431 South,
2452,South San Francisco,South San Francisco,CA,94080,720 Dubuque Ave,
2453,Springville,Springville,NY,14141,440 South Cascade Dr,
2457,Auburndale,Auburndale,FL,33823,2301 U.S. Highway 92 West,
2458,Pulaski County,Radford,VA,24141,6115 Lowes Dr,
2459,Chillicothe,Chillicothe,MO,64601,100 West Business 36,
2460,E. Paducah,Paducah,KY,42003,3131 Irvin Cobb Dr,
2462,Live Oak,Live Oak,FL,32064,208 72nd Trace,
2464,Goose Creek,Goose Creek,SC,29445,520 Saint James Ave,
2465,Blaine,Blaine,MN,55434,11651 Ulysess St,
2466,Sioux Falls,Sioux Falls,SD,57106,4601 W. 26th St,
2468,Harlingen,Harlingen,TX,78550,4705 South Expy 77/83 ,
2470,Central New Orleans,New Orleans,LA,70117,2501 Elysian Fields Ave,
2471,Bryant,Bryant,AR,72022,2330 North Reynolds Rd,
2472,N. Jacksonville,Jacksonville,FL,32218,13125 City Square Dr,
2473,Tulare,Tulare,CA,93274,1145 East Prosperity Ave,
2474,Spring Hill,Spring Hill,TN,37174,2000 Belshire Way,
2476,Morgantown,Elverson,PA,19520,340 Crossing Blvd,
2477,N.E. Las Vegas,Las Vegas,NV,89115,2465 N Nellis Blvd,
2478,S. Warner Robins,Kathleen,GA,31047,1109 Highway 96,
2479,Brighton,Brighton,CO,80601,4980 East Bromley Ln,
2480,San Antonio,San Antonio,TX,78257,18303 Rim Dr,
2481,Escondido,Escondido,CA,92025,620 West Mission Ave,
2483,Catskill,Catskill,NY,12414,60 Catskill Commons,
2484,E. Baton Rouge,Baton Rouge,LA,70816,1777 Millerville Rd,
2485,Edinburg,Edinburg,TX,78539,2802 West University Dr,
2486,Buchanan,Appleton,WI,54915,W3255 Van Roy Rd,
2487,Milan,Milan,TN,38358,15471 South First St,
2488,Northport,Northport,AL,35476,5703 Mcfarland Blvd,
2489,Camden County,Kingsland,GA,31548,1410 East Boone Ave,
2490,Mayfield,Mayfield,KY,42066,1208C Paris Rd,
2491,Siloam Springs,Siloam Springs,AR,72761,3499 Highway 412 E,
2496,Thomaston,Thomaston,ME,4861,164 New County Rd,
2497,Maysville,Maysville,KY,41056,314 East Maple Leaf Rd,
2499,N. Lincoln,Lincoln,CA,95648,51 Lincoln Blvd,
2500,Brimfield Township,Kent,OH,44240,218 Nicholas Way,
2501,Farmington,Farmington,NM,87402,5451 East Pinon Hills Blvd,
2502,Lancaster,Lancaster,CA,93534,730 West Ave K,
2503,Altoona,Altoona,IA,50009,3610 8th St SW,
2504,Derby,Derby,KS,67037,424 West Patriot Ave,
2505,Murphy,Murphy,NC,28906,198 Bulldog Dr,
2506,Aransas Pass,Aransas Pass,TX,78336,150 South Fm 1069,
2507,Lewisburg,Lewisburg,WV,24901,20 Gateway Blvd,
2508,S. Antioch,Antioch,CA,94531,5503 Lone Tree Way,
2509,Elizabethton,Elizabethton,TN,37643,925 Patriot Dr,
2510,Espanola,Espanola,NM,87532,407 Lowdermilk Ln,
2511,Sidney,Sidney,OH,45365,2700 Michigan St,
2512,Wasilla,Wasilla,AK,99654,2561 East Sun Mountain Ave,
2513,S.W. Austin,Austin,TX,78745,6400 Brodie Ln,
2514,Auburn,Auburn,ME,4210,650 Turner St,
2516,Flower Mound,Flower Mound,TX,75028,6200 Long Prairie Rd,
2517,Mebane,Mebane,NC,27302,200 Lowes Blvd,
2518,Owatonna,Owatonna,MN,55060,1280 21st Ave NW,
2519,Starkville,Starkville,MS,39759,882 Highway 12 West,
2520,Newberry,Newberry,SC,29108,2911 Main St,
2521,Brenham,Brenham,TX,77833,2750 Highway 36 South,
2522,Lawrenceburg,Lawrenceburg,IN,47025,970 West Eads Pkwy,
2523,Franklin,Franklin,IN,46131,2219 North Morton St,
2524,Greenville,Greenville,OH,45331,1550 Wagner Ave,
2525,Alabaster,Alabaster,AL,35007,235 Colonial Promenade Pkwy,
2526,Amherst,Amherst,NH,3031,124 Route 101A, Unit 15
2527,Apache Junction,Mesa,AZ,85209,1229 S. Ellsworth Rd,
2528,Apple Valley,Apple Valley,CA,92308,12189 Apple Valley Rd,
2529,Arlington Heights,Arlington Heights,IL,60005,990 West Algonquin Rd,
2530,Bardstown,Bardstown,KY,40004,3790 East John Rowan Blvd,
2531,Bartow,Bartow,FL,33830,425 East Van Fleet Dr,
2532,Big Rapids,Big Rapids,MI,49307,21555 Perry Ave,
2533,Bismarck,Bismarck,ND,58503,1401 Century Ave West,
2534,Blytheville,Blytheville,AR,72315,3790 East Main St,
2535,Bolingbrook,Bolingbrook,IL,60490,245 South Weber Rd,
2536,Brunswick,Brunswick,ME,4011,250 Bath Rd,
2537,Camden,Camden,DE,19934,516 Walmart Dr,
2538,Camillus,Camillus,NY,13031,5377 West Genesee St,
2539,C. Albuquerque,Albuquerque,NM,87104,2001 12th St NW,
2540,C. Oklahoma City,Oklahoma City,OK,73112,3801 North May Ave,
2541,Cicero,Cicero,NY,13039,5701 East Circle Dr,
2542,Clarksville,Clarksville,IN,47129,1350 Veterans Pkwy,
2543,Collierville,Collierville,TN,38017,425 New Byhalia Rd,
2544,Danbury,Danbury,CT,6810,67 Eagle Rd,
2545,Delavan,Delavan,WI,53115,2015 East Geneva St,
2546,E. Fort Worth,Ft. Worth,TX,76120,1111 Eastchase Pkwy,
2547,E. Palmdale,Palmdale,CA,93552,37080 47th St East,
2548,E. Spartanburg,Spartanburg,SC,29307,2079 East Main St,
2550,El Centro,El Centro,CA,92243,2053 North Imperial Ave,
2551,Epping,Epping,NH,3042,36 Fresh River Rd,
2552,Flemington - Raritan,Flemington,NJ,8822,150 Route 31,
2553,Flowood,Flowood,MS,39232,120 Ridge Way,
2554,Franklin,Franklin,WI,53132,7027 South 27th St,
2555,Front Royal,Front Royal,VA,22630,80 Riverton Commons Dr,
2556,Santa Fe,Santa Fe,NM,87507,3458 Zafarano Rd,
2557,Happy Valley,Phoenix,AZ,85085,2501 W. Happy Valley Rd, Bldg 40
2558,Henderson,Henderson,KY,42420,2190 U.S. Highway 60 East,
2559,Henderson,Henderson,TX,75654,1603 U.S. Highway 79 South,
2560,Kenosha,Kenosha,WI,53142,6500 Green Bay Rd,
2561,Kent-midway,Kent,WA,98032,24050 Pacific Highway South,
2562,Lake Havasu,Lake Havasu City,AZ,86404,4000 Highway 95N,
2563,Laurel,Laurel,MS,39440,1490 Highway 15 North,
2564,Laurinburg,Laurinburg,NC,28352,910 U.S. 15-401 By-pass,
2565,Lebanon,Lebanon,MO,65536,190 East Highway 32,
2566,Lehighton,Lehighton,PA,18235,1204 Blakeslee Blvd Dr East,
2567,Little Elm,Little Elm,TX,75068,2773 East Eldorado Pkwy,
2568,Loveland,Loveland,CO,80537,1355 Sculptor Dr,
2570,Lyon Township,New Hudson,MI,48165,30547 Lyon Center Dr East,
2571,Mcalester,Mcalester,OK,74501,530 South George Nigh Expy,
2572,Mechanicsville,Mechanicsville,VA,23111,6425 Mechanicsville Turnpike,
2573,Meridian,Meridian,ID,83646,3400 North Eagle Rd,
2574,Midwest City,Midwest City,OK,73110,7151 SE 29th St,
2575,Mocksville,Mocksville,NC,27028,1427 Yadkinville Rd,
2576,Monett,Monett,MO,65708,925 East U.S. Highway 60,
2577,Mt. Dora,Mt. Dora,FL,32757,18795 U.S. Highway 441,
2578,N. Colorado Springs,Colorado Springs,CO,80920,4252 Royal Pine Dr,
2579,Portland-delta Park,Portland,OR,97217,1160 N. Hayden Meadows Dr,
2580,New Lenox,New Lenox,IL,60451,2480 East Lincoln Highway,
2581,Nicholasville,Nicholasville,KY,40356,1421 Keene Rd,
2582,Ocotillo,Chandler,AZ,85248,4300 South Arizona Ave,
2583,Palm Desert,Palm Desert,CA,92211,35900 Monterey Ave,
2584,Palmyra,Palmyra,PA,17078,70 North Londonderry Sq,
2585,Petoskey,Petoskey,MI,49770,2140 Anderson Rd,
2586,Plover,Plover,WI,54467,230 Crossroads Dr,
2587,Pocatello,Pocatello,ID,83202,650 Bullock St,
2588,Roeland Park,Roeland Park,KS,66205,4960 Roe Blvd,
2589,S. Bel Air,Abingdon,MD,21009,414 Constant Friendship Blvd,
2591,S. Bristol,Bristol,TN,37620,1340 Volunteer Pkwy,
2592,Shelbyville,Shelbyville,KY,40065,544 Taylorsville Rd,
2593,South Bend,South Bend,IN,46614,250 West Ireland Rd,
2594,Severn,Severn,MD,21144,415 George Clauss Blvd,
2595,Spartanburg,Spartanburg,SC,29301,120 East Blackstock Rd,
2596,Thibodaux,Thibodaux,LA,70301,614 North Canal,
2597,Twin Falls,Twin Falls,ID,83301,1350 Blue Lakes Blvd North,
2598,Van Buren,Van Buren,AR,72956,2120 Fayetteville Rd,
2600,Warrensburg,Warrensburg,MO,64093,912 North College Ave,
2601,Waxahachie,Waxahachie,TX,75165,1420 N. Highway 77,
2602,Waynesboro,Waynesboro,VA,22980,801 Lew Dewitt Blvd,
2603,Xenia,Xenia,OH,45385,126 Hospitality Dr,
2604,Concord,Concord,CA,94520,1935 Arnold Industrial Way,
2605,Tustin,Tustin,CA,92782,2500 Park Ave,
2606,Sandy,Sandy,UT,84094,9291 South Quarry Bend Dr,
2607,Fountain,Fountain,CO,80817,7710 Fountain Mesa Rd,
2608,Bozeman,Bozeman,MT,59718,1731 Tschache Ln,
2609,Newport,Newport,TN,37821,120 Epley Rd,
2610,Tilton,Tilton,NH,3276,48 Lowes Dr,
2611,Papillion,Papillion,NE,68133,8707 South 71st Plaza,
2612,Hicksville,Hicksville,NY,11801,920 South Broadway,
2613,Clearfield,Clearfield,PA,16830,100 Lowes Blvd,
2614,Warren,Warren,PA,16365,2625 Market St,
2617,Concord,Concord,NH,3301,90 Fort Eddy Rd,
2618,Gallatin,Gallatin,TN,37066,1301 Nashville Pike,
2619,Keizer,Keizer,OR,97303,6225 Ulali Dr NE,
2620,Madison,Madison,MS,39110,128 Grandview Blvd,
2621,Moultrie,Moultrie,GA,31788,602 Veteran's Pkwy North,
2622,Ridgeland,Ridgeland,MS,39157,910 East County Line,
2623,Spotsylvania County,Fredericksburg,VA,22407,10101 Southpoint Pkwy,
2624,Tappahannock,Tappahannock,VA,22560,2000 Tappahannock Blvd,
2625,Wheeling,Wheeling,WV,26003,2801 Chapline St,
2626,Raymore,Raymore,MO,64083,225 North Dean Ave,
2627,Maple Grove,Maple Grove,MN,55369,11201 Fountains Dr North,
2628,Shakopee,Shakopee,MN,55379,4270 Dean Lakes Blvd,
2629,N. Windham,Windham,ME,4062,64 Manchester Dr,
2630,Gloucester Township,Sicklerville,NJ,8081,485 Cross Keys Rd,
2634,Weaverville,Weaverville,NC,28787,24 Northridge Commons Pkwy,
2636,E. Lincoln County,Denver,NC,28037,7144 Highway 73,
2637,Woodstock,Woodstock,VA,22664,1220 Henry Ford Dr,
2638,Waxhaw,Waxhaw,NC,28173,2508 Cuthbertson Rd,
2639,Oldsmar,Tampa,FL,33635,13841 W. Hillsborough Ave,
2643,Brunswick,Brunswick,GA,31525,300 Glynn Isles,
2644,Palm Bay,Palm Bay,FL,32907,1166 Malabar Rd,
2645,Gonzales,Gonzales,LA,70737,12484 Airline Highway,
2646,Greenville,Greenville,TX,75402,3122 Interstate 30 West,
2647,Carthage,Carthage,MO,64836,433 West Fir Rd,
2648,Jordan Creek,West Des Moines,IA,50266,450 South Jordan Creek Pkwy,
2649,West Chester,West Chester,OH,45069,7975 Tylersville Square Rd,
2650,Belmont,Belmont,NC,28012,200 Caldwell Farm Rd,
2651,Winter Garden,Winter Garden,FL,34787,3391 Daniels Rd,
2652,Fern Park,Fern Park,FL,32730,6735 South U.S. Highway 17-92,
2653,S. Winston-Salem,Winston Salem,NC,27127,1450 Lumber Ln,
2654,Mt. Juliet,Mt. Juliet,TN,37122,300 Pleasant Grove Rd Suite 200
2655,Moore,Moore,OK,73160,1501 South I-35 Service Rd,
2656,N. Mcallen,Mcallen,TX,78504,5700 North 10th St,
2657,Lowell,Lowell,MA,1851,50 Lowes Way,
2658,Milford,Milford,CT,6460,311 Old Gate Ln,
2659,N. Anniston,Anniston,AL,36206,4901 Mcclellan Blvd,
2660,N. Visalia,Visalia,CA,93291,3020 North Demaree St,
2661,Fernley,Fernley,NV,89408,375 Stanley Dr,
2662,West Bountiful,West Bountiful,UT,84087,350 North 545 West,
2663,Sierra Vista,Sierra Vista,AZ,85635,3700 Martin Luther King Pkwy,
2664,Rosedale,Rosedale,NY,11422,253-01 Rockaway Blvd,
2666,London,London,KY,40744,136 Keavy Rd,
2668,Macedon,Macedon,NY,14502,1605 Macedon Pkwy,
2669,Brownsville,Brownsville,TX,78520,525 East Ruben Torres Blvd,
2670,Hutto,Hutto,TX,78634,201 Ed Schmidt Blvd,
2673,Apopka,Apopka,FL,32712,1651 West Orange Blossom Trail,
2674,Americus,Americus,GA,31709,1700 East Lamar St,
2676,Bayonne,Bayonne,NJ,7002,400 Bayonne Crossing Way,
2681,Brownsburg,Brownsburg,IN,46112,630 West Northfield Dr,
2683,Carefree,Carefree,AZ,85377,P.O. Box 6008, 34700 N. Cave Creek Rd
2685,Chester,Chester,NY,10918,3924 Summerville Way,
2687,E. Lancaster,Lancaster,PA,17601,1845 Hempstead Rd,
2690,E. New Orleans,New Orleans,LA,70127,5770 Read Blvd,
2691,E. Richmond,Henrico,VA,23231,4551 S. Laburnum Ave,
2693,Essex,Essex Junction,VT,5452,10 Susie Wilson Rd,
2697,Fort Collins,Fort Collins,CO,80525,4227 Corbett Dr,
2698,Franklin,Franklin,VA,23851,1240 Armory Dr,
2700,Gautier,Gautier,MS,39553,3200 Highway 90,
2701,Glenville,Glenville,NY,12302,93 Freemans Bridge Rd,
2702,Haines City,Haines City,FL,33844,37051 U.S. Highway 27,
2704,Hamburg,Hamburg,NY,14075,4950 Southwestern Blvd,
2706,Hatfield Township,Hatfield,PA,19440,160 Forty Foot Rd,
2707,Homestead,Homestead,FL,33033,1850 NE Campbell Dr,
2709,Jefferson City,Jefferson City,TN,37760,638 E. Broadway Blvd,
2712,Madera,Madera,CA,93637,2100 West Cleveland Ave,
2714,Mid-city Los Angeles,Los Angeles,CA,90019,4550 West Pico Blvd Unit D-101,
2715,Milton,Pace,FL,32571,5143 Highway 90,
2719,N. Abilene,Abilene,TX,79601,1634 Musgrave Blvd,
2721,North Las Vegas,North Las Vegas,NV,89030,2570 East Craig Rd,
2723,North Smithfield,North Smithfield,RI,2896,19 Dowling Village Blvd,
2724,N. Winchester,Winchester,VA,22602,261 Market St,
2725,Nashville,Nashville,TN,37211,5520 Nolensville Pike,
2726,New Hartford,New Hartford,NY,13413,4699 Middle Settlement Rd,
2727,North Port,North Port,FL,34287,5601 Tuscola Blvd,
2728,Northbrook,Northbrook,IL,60062,1000 Willow Rd,
2729,Oak Grove Village,Sullivan,MO,63080,760 Eagles Court,
2730,Paso Robles,Paso Robles,CA,93446,2445 Golden Hill Rd,
2731,Patchogue,East Patchogue,NY,11772,825 Montauk Highway,
2732,Philadelphia - Aramingo Aven,Philadelphia,PA,19137,3800 Aramingo Ave,
2733,Port Orchard,Port Orchard,WA,98366,150 Sedgwick Rd,
2734,Puyallup,Puyallup,WA,98374,3511 5th St SE,
2736,Rochester,Rochester,MN,55904,4550 Maine Ave SE,
2737,S. Jacksonville,Jacksonville,NC,28540,425 Yopp Rd,
2738,S. Lacey,Lacey,WA,98503,5610 Corporate Center Ln SE,
2739,S. Lincoln,Lincoln,NE,68516,6101 Apples Way,
2742,S. Pueblo,Pueblo,CO,81005,2900 West Pueblo Blvd,
2746,Silverdale,Silverdale,WA,98383,2221 NW Myhre Rd,
2750,Troutman,Troutman,NC,28166,1041 Charlotte Highway,
2751,Vernon Hills,Vernon Hills,IL,60061,1660 N. Milwaukee Ave,
2752,West Bridgewater,West Bridgewater,MA,2379,724 West Center St,
2753,S.W. Marion County,Ocala,FL,34476,7575 SW 90th St,
2755,West Sacramento,West Sacramento,CA,95691,2250 Lake Washington Blvd,
2756,W. Tulsa,Tulsa,OK,74132,7225 South Olympia West,
2759,Waterloo,Geneva,NY,14456,3030 Sessler Dr,
2761,Wentzville,Wentzville,MO,63385,1889 Wentzville Pkwy,
2763,Whitehall Township,Whitehall,PA,18052,2650 Macarthur Rd,
2765,Woodhaven,Woodhaven,MI,48183,21000 West Rd,
2766,Zionsville,Zionsville,IN,46077,6711 E. State Rd 334,
2767,Kansas City - Gladstone,Kansas City,MO,64118,4811 N. Oak Trafficway,
2768,Mt. Sterling,Mt Sterling,KY,40353,550 Indian Mound Dr,
2769,St. Robert,Saint Robert,MO,65584,120 Carson Blvd,
2770,Avon,Avon,OH,44011,1445 Center Rd,
2771,N.E. Greensboro,Greensboro,NC,27405,2005 East Cone Blvd,
2772,Pooler,Pooler,GA,31322,1565 Pooler Pkwy,
2773,West Kingsport,Kingsport,TN,37660,2324 West Stone Dr,
2774,Leander,Leander,TX,78641,1495 Highway 183,
2776,Franklin,Franklin,KY,42134,1555 Nashville Rd,
2777,Tarpon Springs,Tarpon Springs,FL,34689,41800 US Hwy 19 N,
2778,S. Durham,Durham,NC,27713,4402 Fayetteville Rd,
2779,Richardson,Richardson,TX,75081,501 South Plano Rd,
2780,E. Aurora,Aurora,CO,80016,24505 E. Wheatlands Pkwy,
2781,Monroe,Monroe,WA,98272,19393 Tjerne Pl SE,
2783,S. Chino Hills,Chino Hills,CA,91709,4777 Chino Hills Pkwy,
2785,Abington,Abington,MA,2351,400 Bedford St,
2786,S. San Antonio,San Antonio,TX,78224,7843 IH 35 S,
2788,Ensley,Pensacola,FL,32534,777 West Nine Mile Rd,
2789,S.E. San Antonio,San Antonio,TX,78223,3302 Goliad Rd,
2790,E. San Jose,San Jose,CA,95131,775 Ridder Park Dr,
2792,S. Meridian,Meridian,ID,83642,305 West Overland Rd,
2793,E. Spokane Valley,Spokane Valley,WA,99037,16205 East Broadway Ave,
2795,Millsboro,Millsboro,DE,19966,26688 Centerview Dr,
2798,Eagle Pass,Eagle Pass,TX,78852,574 South Bibb Ave,
2800,Oakland,Oakland,MD,21550,7000 Lowes Dr,
2801,N.W. Amarillo,Amarillo,TX,79124,6401 Lowes Ln,
2803,Hartsville,Hartsville,SC,29550,819 South Fourth St,
2806,C. Colorado Springs,Colorado Springs,CO,80909,701 North Academy Blvd,
2808,E. Gilbert,Gilbert,AZ,85297,4730 S. Higley Rd,
2809,Bedford,Bedford,VA,24523,1820 East Lynchburg Salem Tpke,
2810,Farmville,Farmville,VA,23901,2644 Farmville Rd,
2812,New Braunfels,New Braunfels,TX,78130,1455 IH 35 South,
2813,Rincon,Rincon,GA,31326,5150 Highway 21 South,
2816,Shippensburg,Shippensburg,PA,17257,250 South Conestoga Dr,
2819,Exeter Township,Reading,PA,19606,4535 Perkiomen Ave,
2820,N. Peoria,Peoria,AZ,85383,25311 N. Lake Pleasant Pkwy,
2821,League City,League City,TX,77573,1655 W. Fm 646,
2822,W. Spring,Spring,TX,77379,20902 Kuykendahl Rd,
2823,La Follette,La Follette,TN,37766,2444 Jacksboro Pike,
2824,Schertz,Schertz,TX,78154,17280 IH 35 N,
2825,Mckinney,Mckinney,TX,75070,2055 N. Central Expy,
2826,N. Frederick,Frederick,MD,21701,7850 Wormans Mill Rd,
2828,Ruckersville,Ruckersville,VA,22968,385 Stoneridge Dr North,
2833,Showlow,Show Low,AZ,85901,5800 South White Mountain Rd,
2834,Vernal,Vernal,UT,84078,2105 West Highway 40,
2837,E. Greenville,Greenville,NC,27858,3840 East 10th St,
2838,Canton,Canton,GA,30114,2044 Cumming Highway,
2840,Bastrop,Bastrop,TX,78602,719 Highway 71 West,
2842,C. San Jose,San Jose,CA,95110,750 Newhall Dr,
2844,Centennial Hills,Las Vegas,NV,89143,7751 N El Capitan Way,
2845,Clinton,Clinton,UT,84015,1986 North 2000 West,
2847,Paragould,Paragould,AR,72450,212 North 23rd St,
2848,North East,North East,MD,21901,425 Mauldin Ave,
2849,Neosho,Neosho,MO,64850,1490 Clemon Dr,
2851,N. Nashville,Nashville,TN,37207,3460 Dickerson Pike,
2852,Reynoldsburg,Reynoldsburg,OH,43068,8231 East Broad St,
2853,S. Lebanon,South Lebanon,OH,45065,575 Corwin Nixon Blvd,
2854,N. Edmond,Edmond,OK,73003,2401 North Kelly Ave,
2855,Mankato,Mankato,MN,56001,2015 Bassett Dr,
2856,Highland,Highland,CA,92346,27847 Greenspot Rd,
2858,Ogden,Ogden,UT,84404,344 N. Washington Blvd,
2862,Zion Crossroads,Gordonsville,VA,22942,165 Camp Creek Pkwy,
2863,North Providence,North Providence,RI,2904,1703 Mineral Springs Ave,
2865,Redmond,Redmond,OR,97756,1313 SW Canal Blvd,
2866,Dayton,Dayton,TN,37321,3535 Rhea County Highway,
2867,Lorain,Lorain,OH,44053,7500 Oak Point Rd,
2868,Marquette,Marquette,MI,49855,3500 U.S. 41 West,
2869,Whiteville,Whiteville,NC,28472,100 Green Hill Dr,
2870,S. Stafford,Fredericksburg,VA,22406,299 Banks Ford Pkwy,
2878,S. Mckinney,Mckinney,TX,75070,8550 S.H. 121,
2879,Rio Rancho,Rio Rancho,NM,87124,3805 Northern Blvd NE,
2884,N. Dothan,Dothan,AL,36303,4801 Montgomery Highway,
2885,Wetumpka,Wetumpka,AL,36092,4501 U.S. Highway 231,
2886,Defuniak Springs,Defuniak Springs,FL,32435,135 Business Park Rd,
2893,Mansfield,Mansfield,PA,16933,2165 South Main St,
2894,Hamburg,Hamburg,PA,19526,20 Wilderness Trail,
2895,Bonney Lake,Bonney Lake,WA,98391,19911 South Prairie Rd East,
2898,Alamo Ranch - San Antonio,San Antonio,TX,78253,5303 W Loop 1604 N,
2903,Mustang,Mustang,OK,73064,1000 East State Highway 152,
2904,Kendall,Miami,FL,33186,9191 SW 137th Ave,
2905,W. Fayetteville,Fayetteville,NC,28304,7771 Good Middling Dr,
2907,Indian Trail,Indian Trail,NC,28079,5711 W. Highway 74,
2908,Suwanee,Suwanee,GA,30024,3260 Lawrenceville Suwanee Rd,
2910,Southington,Southington,CT,6489,500 Executive Blvd,
2918,Prince George,Prince George,VA,23875,2085 Waterside Dr,
2920,N. York County,Clover,SC,29710,5288 Highway 557,
2921,Riverhead - South,Riverhead,NY,11901,1461 Old Country Rd,
2927,Greenport,Hudson,NY,12534,490 Fairview Ave,
2928,Far East El Paso,El Paso,TX,79938,12100 Montana Ave,
2929,Murphy,Murphy,TX,75094,111 East Fm 544,
2930,Tiffin,Tiffin,OH,44883,1025 West Market St,
2933,Sw Sarasota,Sarasota,FL,34238,4020 Central Sarasota Pkwy,
2938,Lisbon,Lisbon,CT,6351,155 River Rd,
2939,Salem,Salem,VA,24153,840 West Main St,
2940,W. Eugene,Eugene,OR,97402,3595 West 11th Ave,
2942,Elkhart,Elkhart,IN,46514,110 County Rd 6 W,
2943,East Kansas City,Kansas City,MO,64133,4201 Sterling Ave,
2944,Marysville,Marysville,OH,43040,15775 U.S. 36E,
2945,Shepherdsville,Shepherdsville,KY,40165,800 Conestoga Pkwy,
2948,N.W. Charleston,Summerville,SC,29485,9600 Dorchester Rd,
2954,Lacamas Lake,Vancouver,WA,98683,18801 SE Mill Plain Blvd,
2955,N.E. Anchorage,Anchorage,AK,99504,1200 North Muldoon,
2956,Moses Lake,Moses Lake,WA,98837,1400 East Yonezawa Blvd,
2961,Kyle,Kyle,TX,78640,5753 Kyle Pkwy,
2962,Odessa,Odessa,TX,79762,4101 East 42nd St, Ste P
2965,Pineville,Pineville,LA,71360,3200 Monroe Highway,
2967,S.E. Lexington County,Lexington,SC,29073,5570 Platt Springs Rd,
2968,Carrollton,Carrollton,GA,30117,1665 Highway 27 South,
2969,Loganville,Loganville,GA,30052,4022 Atlanta Highway,
2970,Middleburg,Middleburg,FL,32068,1700 Blanding Blvd,
2974,Abingdon,Abingdon,VA,24211,24500 Falcon Place Blvd,
2975,Marrero,Marrero,LA,70072,4950 Promenade Blvd,
2978,Wapakoneta,Wapakoneta,OH,45895,1340 Bellefontaine St,
2980,Weslaco,Weslaco,TX,78596,1015 East Expy 83,
2981,S.W. Concord,Concord,NC,28027,8670 Concord Mills Blvd,
2982,N.E. New Hanover County,Wilmington,NC,28411,191 Porters Neck Rd,
2984,Alachua,Alachua,FL,32615,15910 NW 144 Terrace,
2991,Hannibal,Hannibal,MO,63401,3651 Stardust Dr,
2993,Jonesborough,Jonesborough,TN,37659,1498 E. Jackson Blvd,
2995,Towson,Parkville,MD,21234,1400 Taylor Ave,
2996,Mayodan,Mayodan,NC,27027,6844 NC Highway 135,
3000,Tempe,Tempe,AZ,85283,777 East Baseline Rd,
3002,Marble Falls,Marble Falls,TX,78654,3200 Highway 281,
3003,S. Clarksville,Clarksville,TN,37043,1622 Madison St,
3006,Hartselle,Hartselle,AL,35640,1807 Highway 31 NW,
3015,Abbeville,Abbeville,LA,70510,2700 Charity St,
3022,Tarboro,Tarboro,NC,27886,111 River Oaks Dr,
3026,N. Richland County,Columbia,SC,29229,1051 Sams Crossing Dr,
3027,Missouri City,Missouri City,TX,77459,3807 Fm 1092,
3028,Granite City,Granite City,IL,62040,1333 Schaefer Rd,
3032,College Station,College Station,TX,77845,4451 Highway 6 South,
3033,Petal,Petal,MS,39465,40 Tyner Rd,
3034,Sparks,Sparks,NV,89434,1355 Scheels Dr,
3039,Graysville,Graysville,AL,35073,1100 Bankhead Highway,
3040,N. Lancaster County,Indian Land,SC,29707,181 Fort Mill Highway,
3041,New Albany,New Albany,MS,38652,500 Park Plaza Dr,
3045,North Spokane Lowes,Spokane,WA,99208,6606 N Division St,
3048,Los Lunas,Los Lunas,NM,87031,1600 Main St NW,
3050,S. Anderson,Anderson,SC,29626,408 Highway 28 By-pass,
3051,Mccandless Township,Pittsburgh,PA,15237,9051 St. Simon Way,
3057,Albany,Albany,OR,97322,1300 9th Ave Se,
3071,Clemson,Central,SC,29630,608 Issaqueena Trail,
3088,Moberly,Moberly,MO,65270,1800 East Outer Rd,
3095,San Francisco,San Francisco,CA,94124,491 Bayshore Blvd,
3151,Covina,Covina,CA,91722,1348 North Azusa Ave,
3159,Commack,Commack,NY,11725,100 Long Island Expressway ,
3164,Fairfield,Fairfield,CA,94533,3400 North Texas St,
3166,Destin,Destin,FL,32541,4405 Legendary Dr,
3167,Carlsbad,Carlsbad,NM,88220,2519 West Pierce St,
3168,Bear,Bear,DE,19701,1030 E Songsmith Dr,
3169,Havertown,Havertown,PA,19083,116 West Township Line Rd.,
3202,Hobbs,Hobbs,NM,88240,1510 West Joe Harvey Blvd,
3206,Silverthorne,Silverthorne,CO,80498,201 Buffalo Mountain Dr,
3214,Poway,Poway,CA,92064,13750 Poway Road,
3216,Kill Devil Hills,Kill Devil Hills,NC,27948,1500 North Croatan Highway,
3240,Yakima,Yakima,WA,98903,2235 Longfibre Ave,
3248,Norwalk,Norwalk,CT,6850,100 Connecticut Ave,
3256,Washington,Washington,DC,20018,2438 Market Street NE,
3274,Fairfax,Fairfax,VA,22030,4080 Jermantown Rd,
3278,Gainesville,Gainesville,FL,32608,3101 Clark Butler Blvd,
3284,Wicker Park,Chicago,IL,60622,1360 North Ashland Ave,
3292,Upper West Side,New York,NY,10023,2008 Broadway,
3293,Chelsea,New York,NY,10011,635-641 Avenue Of The Americas,
3456,Bristol,Bristol,VA,24201,401 Cabela Drive,
3501,Wall Township,Wall Township,NJ,7719,1933 Route 35 South Suite 125
3608,Sanford,Sanford,NC,27332,3015 S. Horner Blvd,
3,S.E. Columbus,Columbus,OH,43232,2888 Brice Rd,
4,Rainier,Seattle,WA,98144,2700 Rainier Ave South,
5,Shawnee,Shawnee,OK,74804,4817 North Kickapoo St,
8,Columbia,Columbia,MO,65201,201 Conley Rd North,
9,Bellefontaine,Bellefontaine,OH,43311,2168 U.S. 68 South,
10,Tukwila,Tukwila,WA,98188,101 Andover Park East,
12,Lafayette,Lafayette,IN,47905,100 North Creasy Ln,
15,Layton,Layton,UT,84041,1055 W. Antelope Dr,
16,Madisonville,Madisonville,KY,42431,550 Island Ford Rd,
18,Coeur D'alene,Coeur D Alene,ID,83814,901 Appleway Ave,
19,Fremont,Fremont,OH,43420,1952 North State, Route 53
21,Kahului,Kahului,HI,96732,270 Dairy Road, Building A
22,Lebanon,Lebanon,PA,17042,1755 Quentin Rd,
26,Tacoma,Tacoma,WA,98466,2701 South Orchard St,
28,Texas City,Texas City,TX,77590,3620 Emmett F. Lowry Expway,
31,Hendersonville,Hendersonville,NC,28792,1415 7th Avenue, East
33,Newnan,Newnan,GA,30265,955 Bullsboro Dr,
35,Mount Vernon,Mount Vernon,WA,98273,1717 Freeway Dr,
37,W. Columbus,Hilliard,OH,43026,3600 Park Mill Run Dr,
40,Bellevue,Bellevue,WA,98005,11959 Northup Way,
42,Dayton-trotwood,Trotwood,OH,45426,5252 Salem Ave,
44,Steubenville,Steubenville,OH,43952,4115 Mall Dr,
46,Benton Harbor,Benton Harbor,MI,49022,1300 Mall Dr,
52,Danville,Danville,IL,61832,3636 North Vermillion,
53,W. Fort Wayne,Fort Wayne,IN,46804,4430 Illinois Rd,
57,Burlington,Burlington,IA,52601,3435 Agency,
56,Norwalk,Norwalk,CA,90650,14873 Carmenita Rd,
59,De Kalb,Dekalb,IL,60115,2050 Sycamore Rd,
61,Smokey Point,Arlington,WA,98223,3300 169th Pl NE,
63,Midland,Midland,TX,79707,3315 North Loop 250 W.,
66,Mt. Vernon,Mount Vernon,IL,62864,111 Davidson Ave,
69,Battle Creek,Battle Creek,MI,49014,6122 B Dr North,
71,Goshen,Goshen,IN,46526,2219 Rieth Blvd,
72,Ponca City,Ponca City,OK,74601,3500 North 14th St,
75,Wichita Falls,Wichita Falls,TX,76308,3301 Kell Blvd,
77,Sandusky,Sandusky,OH,44870,5500 Milan Rd - Space 304,
80,Champaign,Champaign,IL,61822,1904 North Prospect Ave,
82,Lufkin,Lufkin,TX,75901,3501 South Medford,
86,Virginia Beach,Virginia Beach,VA,23452,3565 Holland Rd,
88,Adrian,Adrian,MI,49221,1369 Division St,
89,Beavercreek,Fairborn,OH,45324,2850-I Centre Dr,
90,San Angelo,San Angelo,TX,76904,5301 Sherwood Way,
91,Corinth,Corinth,MS,38834,1800 South Pkwy,
92,Galesburg,Galesburg,IL,61401,531 West Carl Sandburg Dr,
95,Beaumont,Beaumont,TX,77706,4120 Dowlen Rd,
97,Baytown,Baytown,TX,77521,5002 Garth Rd,
98,Katy,Houston,TX,77094,19935 Katy Freeway,
102,Aurora,Aurora,CO,80012,1701 South Havana St,
103,Bryan,Bryan,TX,77802,3225 Freedom Blvd,
104,Moline,Moline,IL,61265,3820 44th Ave Dr,
107,Davenport,Davenport,IA,52807,3955 Elmore Ave,
110,St. Clairsville,Saint Clairsville,OH,43950,50421 Valley Plaza Dr,
113,Midlothian,Richmond,VA,23235,1512 West Koger Center Dr,
116,Muncie,Muncie,IN,47304,4401 West Clara Ln,
117,Dubuque,Dubuque,IA,52003,4100 Dodge St,
118,Kankakee,Bradley,IL,60915,860 Kinzie Ave,
119,Waipahu,Waipahu,HI,96797,94-805 Lumiaina St,
120,Belle Vernon,Belle Vernon,PA,15012,203 Sarah Way,
124,Muskogee,Muskogee,OK,74403,2901 Old Shawnee,
127,Sherman,Sherman,TX,75090,2801 U.S. Highway 75 North,
126,E. Fort Wayne,Fort Wayne,IN,46805,1929 North Coliseum Blvd,
129,Waco,Waco,TX,76710,201 North New Rd,
137,Lake Jackson,Lake Jackson,TX,77566,200 Highway 332 East,
138,Abilene,Abilene,TX,79606,4134 Ridgemont Dr,
139,Hermitage,Hermitage,PA,16148,3000 Glimcher Blvd,
140,Issaquah,Issaquah,WA,98027,1625 11th Ave N.W.,
145,N.W. Indianapolis,Indianapolis,IN,46268,8440 Michigan Rd,
146,Jackson,Jackson,MI,49202,1535 Boardman Rd,
149,Everett,Everett,WA,98201,2505 Pacific Ave,
152,Wenatchee,Wenatchee,WA,98801,1200 Walla Walla Ave,
159,San Marcos,San Marcos,TX,78666,2211 South Interstate 35,
165,Butler,Butler,PA,16001,500 Moraine Point Plaza,
167,Peoria,Peoria,IL,61615,5001 North Big Hollow Rd,
168,Hamilton,Hamilton,OH,45013,1495 Main St,
172,Spokane Valley,Spokane,WA,99212,E. 5204 Sprague Ave,
174,Texarkana,Texarkana,TX,75501,501 Walton Dr,
175,Johnstown,Johnstown,PA,15904,630 Solomon Run Rd,
177,Statesboro,Statesboro,GA,30461,24065 Hwy 80 East,
178,Orem,Orem,UT,84058,140 West University Pkwy,
179,Lake City,Lake City,FL,32055,3463 N.W. Bascom Norris Dr,
180,Greensburg,Greensburg,PA,15601,Hempfield Square, Rt. 30 W.
181,S.W. Columbus,Columbus,OH,43228,1675 Georgesville Square Dr,
183,Denton,Denton,TX,76205,1255 South Loop 288,
186,S. Baton Rouge,Baton Rouge,LA,70809,10303 South Mall Dr,
187,Uniontown,Uniontown,PA,15401,79 Matthew Dr,
188,Boardman,Youngstown,OH,44514,1100 Doral Dr,
191,Rockford,Rockford,IL,61108,7130 East State Rd,
190,Cartersville,Cartersville,GA,30120,301 Marketplace Blvd,
195,Michigan City,Michigan City,IN,46360,5200 Franklin St,
197,Indiana,Indiana,PA,15701,475 Ben Franklin Rd South,
199,Muskegon,Muskegon,MI,49444,2035 East Sherman Blvd,
200,Mishawaka,Mishawaka,IN,46545,4660 North Grape Rd,
202,Vestal,Vestal,NY,13850,225 Sycamore Rd,
203,Dayton Mall,West Carrollton,OH,45449,2900 Martin's Dr,
205,Enid,Enid,OK,73703,5201 West Garriott,
207,Wilmington Pike,Centerville,OH,45459,6300 Wilmington Pike,
208,La Quinta,La Quinta,CA,92253,78-865 Highway 111,
209,Killeen,Killeen,TX,76542,2801 South W.S. Young Dr,
210,Zanesville,Zanesville,OH,43701,3755 Frazeysburg Rd,
211,Marion,Marion,IN,46953,2842 South Western Ave,
212,Mobile,Mobile,AL,36606,151 East I-65 Service Rd South,
215,Terre Haute,Terre Haute,IN,47802,4701 South U.S. Highway 41,
220,Louisville,Louisville,CO,80027,1171 Dillon Rd,
221,Temple,Temple,TX,76502,605 SW H.K. Dodgen Loop,
222,Canton,North Canton,OH,44720,6375 Strip Avenue, N.W.
223,Gaithersburg,Gaithersburg,MD,20878,40 Market St,
224,Elyria,Elyria,OH,44035,646 Midway Blvd,
226,Erie,Erie,PA,16509,1930 Keystone Dr Suite 2,
231,Defiance,Defiance,OH,43512,1831 North Clinton St,
232,Conroe,Conroe,TX,77304,1920 Westview Blvd,
235,Russellville,Russellville,AR,72802,3011 Pkwy East,
236,Conway,Conway,AR,72032,1325 Highway 64 West,
240,Vero Beach,Vero Beach,FL,32966,6110 20th St,
241,Stillwater,Stillwater,OK,74075,1616 North Perkins Rd,
242,Scranton,Dickson City,PA,18519,901 Viewmont Dr,
243,S. Tulsa,Tulsa,OK,74133,10156 East 71st Street, South
244,Trumbull County,Warren,OH,44484,940 Niles Cortland Rd,
246,Northglenn,Northglenn,CO,80234,261 West 104th Ave,
245,Decatur,Forsyth,IL,62535,990 Hickory Pt Plaza,
247,N. Richmond,Richmond,VA,23227,8001 Brook Rd,
248,Medford,Medford,OR,97504,3601 Crater Lake Highway,
249,Kennewick,Kennewick,WA,99336,N. 1020 Colorado St,
250,Torrance,Torrance,CA,90501,22255 Western Ave,
252,N. Seattle,Seattle,WA,98133,12525 Aurora Ave North,
255,Lima,Lima,OH,45807,2411 North Eastown Rd,
258,Springfield,Springfield,IL,62704,3101 West Wabash,
265,N.E. Columbus,Columbus,OH,43219,4141 Morse Crossing,
264,Ontario,Mansfield,OH,44906,940 N Lexington Spring Mill Rd,
268,S. Oklahoma City,Oklahoma City,OK,73139,100 SW 74th St,
269,New Philadelphia,New Philadelphia,OH,44663,495 Mill Rd,
270,Amarillo,Amarillo,TX,79119,5000 South Coulter St,
271,Lubbock,Lubbock,TX,79424,5022 West Loop 289,
272,E. Indianapolis,Indianapolis,IN,46219,8801 East 25th St,
275,W. Indianapolis,Indianapolis,IN,46224,975 Beachway Dr,
278,Joplin,Joplin,MO,64804,2600 Range Line Rd,
279,Reading,Reading,PA,19605,500 Madison Ave,
281,Enterprise,Enterprise,AL,36330,1301 Boll Weevil Cir,
282,Victoria,Victoria,TX,77904,8602 North Navarro St,
285,Lynnwood,Lynnwood,WA,98036,3100 196th S.W.,
288,N.E. Indianapolis,Indianapolis,IN,46250,8002 North Shadeland Ave.,
289,Anchorage,Anchorage,AK,99503,333 East Tudor Rd,
292,Hazleton,West Hazleton,PA,18202,200 Weis Ln,
297,Alliance,Alliance,OH,44601,2595 West State St,
298,Wilmington,Wilmington,OH,45177,1175 Rombach Ave,
303,Middletown,Middletown,OH,45044,3125 Towne Blvd,
305,St. Joseph,Saint Joseph,MO,64506,3901 N. Belt Highway,
311,Greenwood Village,Greenwood Village,CO,80111,9100 East Peakview Ave,
313,Cullman,Cullman,AL,35055,1717 Cherokee Avenue, Sw
316,Chino Hills,Chino Hills,CA,91709,13251 Peyton Dr,
317,Cape Girardeau,Cape Girardeau,MO,63701,3440 Lowes Dr,
318,Pueblo,Pueblo,CO,81008,1225 Highway 50 West,
319,Billings,Billings,MT,59102,2717 King Ave West,
321,Reno,Reno,NV,89511,5075 Kietzke Ln,
330,Holland,Holland,MI,49424,12635 Felch St Suite 10
340,Arvada,Arvada,CO,80002,5405 Wadsworth Bypass,
342,Murray,Murray,UT,84123,469 West 4500 South,
351,Bartlesville,Bartlesville,OK,74006,2205 SE Adams Blvd.,
356,Montoursville,Montoursville,PA,17754,701 Loyalsock Ave,
358,Summerville,Summerville,SC,29483,1207 North Main St,
357,Kokomo,Kokomo,IN,46902,4005 South Lafountain,
377,Pineville,Charlotte,NC,28226,10625 Mcmullen Creek Pkwy,
381,W. Richmond,Richmond,VA,23294,9490 West Broad St,
385,Irmo,Columbia,SC,29212,390 Harbison Blvd,
387,N. Greensboro,Greensboro,NC,27408,3001 Battleground Ave,
388,Fayetteville,Fayetteville,NC,28314,1929 Skibo Square,
390,Hermitage,Hermitage,TN,37076,5025 Old Hickory Blvd.,
397,N. Manassas,Manassas,VA,20109,7500 Broken Branch Ln,
402,Charles County,Waldorf,MD,20601,2525 Crain Hwy,
403,S. Savannah,Savannah,GA,31419,11114 Abercorn St,
404,S.W. Greensboro,Greensboro,NC,27407,1703 South Forty Dr,
408,N. Charlotte,Charlotte,NC,28213,1100 Chancellor Park Dr,
410,Myrtle Beach,Myrtle Beach,SC,29577,1160 Seaboard St,
411,Huntsville,Huntsville,AL,35803,10050 S. Memorial Pkwy,
413,Madison,Madison,TN,37115,10 Campbell Rd,
415,York,York,PA,17402,2449 East Market St,
414,Jonesboro,Jonesboro,AR,72401,2111 Fair Park Blvd,
416,Rock Hill,Rock Hill,SC,29730,1350 Springdale Rd,
417,N.E. Tallahassee,Tallahassee,FL,32308,2121 N.E. Capitol Cir,
419,Roanoke,Roanoke,VA,24012,5040 Rutgers Street, N.W.
420,Newport News,Newport News,VA,23602,300 Chatham Dr,
422,Springfield,Springfield,MO,65804,1850 East Primrose,
423,Tuscaloosa,Tuscaloosa,AL,35405,4900 Oscar Baxter Dr,
424,Salisbury,Salisbury,MD,21801,2606 N. Salisbury Blvd.,
425,Chattanooga,Chattanooga,TN,37421,2180 Gunbarrel Rd,
426,Cary,Cary,NC,27518,2000 Walnut St,
428,Shreveport,Shreveport,LA,71118,2710 Alkay Dr,
432,Fayetteville,Fayetteville,AR,72703,1050 Zion Rd,
433,N.E. Columbia,Columbia,SC,29223,7441 Two Notch Rd,
434,Gainesville,Gainesville,GA,30504,1514 Skelton Rd,
435,Pikeville,Pikeville,KY,41501,183 Cassady Blvd,
436,West Winston,Winston Salem,NC,27103,935 Hanes Mall Blvd,
437,Lynchburg,Lynchburg,VA,24502,8216 Timberlake Rd,
439,Chesapeake,Chesapeake,VA,23320,1308 Battlefield Blvd, North
438,Pensacola,Pensacola,FL,32504,1201 Airport Blvd,
440,Ocala,Ocala,FL,34474,3535 SW 36th Ave,
441,S. Montgomery,Montgomery,AL,36117,1950 Eastern Blvd,
442,S. Indianapolis,Indianapolis,IN,46227,8850 South Madison Ave,
444,N. Raleigh,Raleigh,NC,27604,4601 Capital Blvd,
445,University Centre,Wilmington,NC,28403,354 South College Rd,
446,Altoona,Altoona,PA,16602,1707 Mcmahon Rd,
447,Christiansburg,Christiansburg,VA,24073,350 Peppers Ferry Rd, NE
448,Panama City,Panama City,FL,32405,300 East 23rd St,
449,Asheboro,Asheboro,NC,27203,1120 East Dixie Dr,
450,Monroe,Monroe,LA,71202,4750 Frontage Rd,
452,Bowie,Bowie,MD,20716,16301 Heritage Blvd,
451,Bowling Green,Bowling Green,KY,42104,150 American Ln,
453,Springfield,Springfield,OH,45504,1601 North Bechtle Ave,
454,Barboursville,Barboursville,WV,25504,700 Mall Rd,
455,Burlington,South Point,OH,45680,294 County Road, 120 South
456,Bristol,Bristol,VA,24202,13255 Lee Highway,
457,Franklin Square,Gastonia,NC,28056,3250 East Franklin Blvd.,
458,Statesville,Statesville,NC,28625,140 N. Pointe Blvd,
460,Elizabethtown,Elizabethtown,KY,42701,100 Lowe's Dr,
459,N. High Point,High Point,NC,27265,2600 North Main St,
461,N. Baton Rouge,Baton Rouge,LA,70815,9460 Cortana Pl,
462,Fort Smith,Fort Smith,AR,72903,8001 Rogers Ave,
463,Tyler,Tyler,TX,75703,5720 South Broadway,
464,Winchester,Winchester,KY,40391,1221 By-Pass Rd,
465,Paducah,Paducah,KY,42001,5176 Hinkleville Rd,
466,Gulfport,Gulfport,MS,39501,2151 John Hill Blvd,
467,Orange City,Orange City,FL,32763,901 Saxon Blvd,
468,Allegany,Lavale,MD,21502,1211 National Highway,
469,Easley,Easley,SC,29640,6068 Calhoun Memorial Hwy,
470,Waynesville,Waynesville,NC,28786,100 Liner Cove Rd,
471,Hagerstown,Hagerstown,MD,21740,1500 Wesel Blvd,
472,Chillicothe,Chillicothe,OH,45601,867 North Bridge St,
473,Wood County,Vienna,WV,26105,1300 Grand Central Ave,
474,E. Louisville,Louisville,KY,40222,501 So. Hurstbourne Pkwy,
477,Wheelersburg,Wheelersburg,OH,45694,7915 Ohio River Rd,
476,Fredericksburg,Fredericksburg,VA,22401,1361 Carl D. Silver Pkwy,
478,Mount Airy,Mount Airy,NC,27030,692 South Andy Griffith Parkway, Ste. 100
479,FT. Walton Beach,Fort Walton Beach,FL,32547,774 Beal Pkwy,
480,N. Winston,Winston Salem,NC,27105,5901 University Pky,
481,Florence,Florence,AL,35630,130 Cox Creek Pkwy. South,
482,Augusta,Augusta,GA,30907,224 Bobby Jones Exp,
483,Warner Robins,Warner Robins,GA,31093,2704 Watson Blvd,
484,Lafayette,Lafayette,LA,70503,3726 Ambassador Caffery,
486,W. Knoxville,Knoxville,TN,37923,210 N. Peters Rd,
485,FT. Oglethorpe,Ft. Oglethorpe,GA,30742,2215 Battlefield Pkwy,
487,Chapel Hill,Chapel Hill,NC,27514,1801 Fordham Blvd,
488,Garner,Garner,NC,27529,1575 U.S. Highway 70 West,
489,Huntersville,Huntersville,NC,28078,16830 Statesville Rd,
490,Lexington,Lexington,NC,27292,130 Lowe's Blvd,
491,Albany,Albany,GA,31707,1200 North Westover Blvd,
492,Frankfort,Frankfort,KY,40601,350 Leonardwood Dr,
493,Carbondale,Carbondale,IL,62901,1170 East Rendleman Rd,
494,Corbin,Corbin,KY,40701,777 West Cumberland Gap Pky,
495,Salisbury,Salisbury,NC,28146,207 Faith Rd,
496,Jackson,Jackson,TN,38305,671 Vann Dr,
497,North Charleston,North Charleston,SC,29406,7555 Northwood Blvd,
498,Clarksville,Clarksville,TN,37040,2150 Lowe's Dr,
499,West Columbia,West Columbia,SC,29170,2829 Augusta Rd,
500,Monaca,Monaca,PA,15061,115 Wagner Rd,
501,N.W. Houston,Houston,TX,77070,19580 Tomball Pkwy, State Hwy 249
502,S. Jacksonville,Jacksonville,FL,32223,4040 Oldfield Crossing Dr,
503,E. Jacksonville,Jacksonville,FL,32225,9525 Regency Square Blvd, No.
505,E. Plano,Plano,TX,75023,5001 Central Expy,
504,Titusville,Titusville,FL,32780,4660 South St,
506,Athens,Athens,GA,30606,1851 Epps Bridge Rd,
507,E. Lexington,Lexington,KY,40509,200 Old Todds Rd,
508,Burlington,Burlington,NC,27215,125 Huffman Mill Rd,
509,Harrisonburg,Harrisonburg,VA,22802,201 Linda Ln,
510,Mesquite,Mesquite,TX,75150,4444 N. Galloway Ave,
511,Sugar Land,Sugar Land,TX,77479,16510 S. W. Freeway,
512,Stockbridge,Stockbridge,GA,30281,3505 Mt. Zion Rd,
513,S.W. Dallas,Dallas,TX,75232,8520 S. Hampton Rd,
514,Burleson,Burleson,TX,76028,920 N. Burleson Blvd.,
515,N. Dallas,Dallas,TX,75244,11920 Inwood Rd,
516,Frederick,Frederick,MD,21704,5611 Buckeystown Pike,
517,Charlottesville,Charlottesville,VA,22901,400 Woodbrook Dr,
518,Greenwood,Greenwood,SC,29649,513 Bypass 72 NW,
519,Longview,Longview,TX,75605,3313 North Fourth St,
520,S. Arlington,Arlington,TX,76015,1000 West Arbrook,
521,Topeka,Topeka,KS,66615,1621 Southwest Arvonia Pl,
522,Harrisburg,Harrisburg,PA,17109,4000 Union Deposit Rd,
523,Utica,Utica,NY,13502,710 Horatio St,
524,Ulster,Kingston,NY,12401,901 Frank Sottile Blvd.,
525,S. FT. Worth,Fort Worth,TX,76132,4305 Bryant Irvin Rd,
526,W. Asheville,Asheville,NC,28806,95 Smokey Park Highway,
527,Lancaster,Lancaster,OH,43130,2240 Lowes Dr,
529,Tupelo,Tupelo,MS,38804,3354 North Gloster St,
528,Simpsonville,Simpsonville,SC,29680,3958 Grandview Dr,
530,Big Flats,Elmira,NY,14903,913 County RD., Route 64
531,Austell,Austell,GA,30106,1717 East West Connector,
532,Franklin,Franklin,TN,37067,3060 Mallory Ln,
533,Hurst,Hurst,TX,76054,770 Grapevine Hwy,
534,N.W. Cincinnati,Cincinnati,OH,45251,10235 Colerain Ave,
538,Southern Pines,Southern Pines,NC,28387,10845 Us 15-501 Hwy.,
535,N. Oklahoma City,Oklahoma City,OK,73134,2400 W. Memorial Rd,
539,Mt. Pleasant,Mount Pleasant,SC,29464,1104 Market Center Blvd,
537,Hattiesburg,Hattiesburg,MS,39402,6004 U.S. Hwy. 98,
540,Middletown,Middletown,NY,10941,700 North Galleria Dr,
542,Mason,Mason,OH,45040,9380 Mason-Montgomery Rd.,
541,Poughkeepsie,Poughkeepsie,NY,12601,1941 South Rd,
543,Woodstock,Woodstock,GA,30189,575 Molly Ln,
545,W. Marietta,Marietta,GA,30064,2650 Dallas Hwy. S.W.,
547,Rocky Mount,Rocky Mount,NC,27804,700 N. Wesleyan Blvd.,
548,Crossville,Crossville,TN,38555,2431 N. Main,
546,Macon,Macon,GA,31206,3190 Macon Tech Dr,
549,W. Mobile,Mobile,AL,36608,7760 Airport Blvd.,
550,Carrollton,Carrollton,TX,75006,1253 East Trinity Mills Rd,
552,W. Des Moines,West Des Moines,IA,50266,1700 50th St,
551,Lewisville,Lewisville,TX,75067,1051 Stemmons Freeway,
553,Pottsville,Pottsville,PA,17901,PA Route 61 & Ann St,
554,Florence,Florence,KY,41042,4800 Houston Rd,
555,Copperfield,Copperfield,TX,77095,15555 Fm 529,
556,Jacksonville,Jacksonville,NC,28546,1255 Western Blvd,
557,Goldsboro,Goldsboro,NC,27534,1202 Berkeley Blvd,
558,Somerset,Somerset,KY,42501,2001 South Hwy 27,
559,Orangeburg,Orangeburg,SC,29118,2896 North Rd Hwy 178,
560,Saratoga Springs,Saratoga Springs,NY,12866,10 Lowe's Dr,
561,Auburn,Auburn,NY,13021,299 Grant Ave,
562,Saginaw,Saginaw,MI,48604,2258 Tittabawasee Rd,
563,Spring,Spring,TX,77388,20201 N. IH 45,
564,Central Tampa,Tampa,FL,33634,6275 W. Waters Ave,
567,Morgantown,Morgantown,WV,26508,901 Venture Dr,
566,New Bern,New Bern,NC,28562,1400 Lowe's Blvd,
568,Westminster,Westminster,MD,21157,777 Market St,
569,Lake County,Leesburg,FL,34788,9540 U.S. Hwy 441,
573,Brandon,Brandon,FL,33511,11375 Causeway Blvd,
575,Midland,Midland,MI,48642,1918 Airport Rd,
576,N. Durham,Durham,NC,27704,117 William Penn Plaza,
577,Foley,Foley,AL,36535,3101 South Mckenzie Hwy 59,
578,Cookeville,Cookeville,TN,38501,510 Neal St,
579,Morriston,Morristown,TN,37814,2744 West Andrew Johnson Hwy,
580,Homewood,Homewood,AL,35209,375 State Farm Pkwy W,
581,Ames,Ames,IA,50010,120 Airport Rd,
582,FT. Myers,Fort Myers,FL,33912,14960 S. Tamiami Trail,
586,Alexandria,Alexandria,LA,71301,3201 Industrial St,
588,Logan,Logan,WV,25601,Norman Morgan Blvd, U.S. Rt 119
587,Dover,Dover,DE,19901,1450 N. Dupont Highway,
589,Lake Charles,Lake Charles,LA,70607,2800 Derek Dr,
590,N.W. Austin,Austin,TX,78717,13201 N. Ranch Rd 620, Bldg. G.
591,Alton,Alton,IL,62002,1619 Homer Adams Pkwy.,
593,New Haven,New Haven,CT,6513,115 Foxon Blvd,
592,Cape Coral,Cape Coral,FL,33909,1651 NE Pine Island Rd,
594,Trussville,Birmingham,AL,35235,1885 Edwards Lake Rd,
596,Houma,Houma,LA,70360,1592 Martin Luther King Blvd,
597,Hot Springs,Hot Springs,AR,71913,300 Corner Stone Blvd,
595,Mooresville,Mooresville,NC,28117,509 River Highway,
599,Chester,Chester,VA,23831,2601 Weir Pl,
598,Greenville,Winterville,NC,28590,800 Thomas Langston Rd,
603,North Myrtle Beach,North Myrtle Beach,SC,29582,214 U.S. Hwy 17 North,
604,Altamonte Springs,Altamonte Springs,FL,32714,110 N. State Rd 434,
605,Stow,Stow,OH,44224,3570 Hudson Dr,
606,Dothan,Dothan,AL,36301,2671 Ross Clark Cir,
607,S. Lexington,Lexington,KY,40503,4055 Nichols Park Dr,
609,W. Chesterfield,Chesterfield,VA,23832,7001 Winterpock Rd,
610,Rockwall,Rockwall,TX,75032,851 N. Steger Town Dr,
611,Garland,Garland,TX,75040,2949 N. George Bush Freeway,
612,Shelby,Shelby,NC,28150,425 Earl Rd,
613,Naples,Naples,FL,34109,6415 Naples Blvd,
614,W. Wichita,Wichita,KS,67209,333 South Rdg Rd,
615,Alpharetta,Alpharetta,GA,30004,10580 Duke Dr,
616,Nitro,Cross Lanes,WV,25313,1000 Nitro Marketplace,
617,E. Asheville,Asheville,NC,28805,89 South Tunnel Rd,
619,Morehead City,Morehead City,NC,28557,5219 Hwy 70,
618,N. Lafayette,Lafayette,LA,70507,120 East Gloria Switch Rd,
620,Hoover,Hoover,AL,35244,2100 Valleydale Rd,
621,Orange,Orange,CT,6477,50 Boston Post Rd,
622,N. Wilmington,Wilmington,DE,19803,3100 Brandywine Pkwy, 1st Floor
623,Newington,Newington,CT,6111,3270 Berlin Turnpike,
624,Catonsville,Baltimore,MD,21228,5900 Baltimore National Pike,
625,W. Raleigh,Raleigh,NC,27613,4831 Grove Barton Rd,
626,Sumter,Sumter,SC,29150,1251 Broad St,
627,Martinsburg,Martinsburg,WV,25401,14725 Apple Harvest Dr,
628,Hanover,Hanover,PA,17331,310 Eisenhower Dr,
629,W. Nashville,Nashville,TN,37209,7034 Charlotte Pike,
630,E. Evansville,Evansville,IN,47715,6716 Oak Grove Rd,
631,Glen Burnie,Glen Burnie,MD,21061,6650 Ritchie Hwy Route 2,
632,Williamsburg,Williamsburg,VA,23188,801 East Rochambeau Dr,
633,Fairlawn,Akron,OH,44333,186 N. Cleveland Massillon Rd,
634,Bloomington,Bloomington,IN,47404,350 North Gates Dr,
635,Central Indianapolis,Indianapolis,IN,46220,6002 North Rural St,
637,N. Knoxville,Knoxville,TN,37912,6600 Clinton Hwy,
636,N. Columbus,Columbus,GA,31909,6750 Veterans Pkwy,
638,Blount County,Alcoa,TN,37701,1098 Hunters Crossing Dr,
639,Aiken,Aiken,SC,29803,2470 Whiskey Rd,
640,Stone Mountain,Lilburn,GA,30047,4855 Stone Mountain Highway,
641,Glens Falls,Queensbury,NY,12804,251 Quaker Rd,
642,W. Orlando,Orlando,FL,32818,8700 W. Colonial Dr,
644,Sunbury,Selinsgrove,PA,17870,1389 North Susquehanna Trail,
645,Henrietta,Rochester,NY,14623,2350 Marketplace Dr,
646,Staunton,Staunton,VA,24401,1028D Richmond Rd,
647,Smithfield,Smithfield,NC,27577,1230 N. Brightleaf Blvd,
643,Fairview Heights,Fairview Heights,IL,62208,6211 N. Illinois,
649,Cleveland,Cleveland,TN,37312,229 Paul Huff Pkwy NW,
650,Plainville,Plainville,CT,6062,246 New Britain Ave,
651,Baybrook,Webster,TX,77598,19225 Gulf Freeway,
652,Wilkes-barre,Wilkes Barre,PA,18702,501 Arena Hub Plaza,
653,Cranberry Township,Cranberry Township,PA,16066,1717 Route 228,
655,W. Ashley,Charleston,SC,29414,3125 Glenn Mcconnell Pkwy,
656,Winchester,Winchester,VA,22601,2200 S. Pleasant Valley Rd,
654,Royal Palm Beach,Royal Palm Beach,FL,33411,103 South State Rd 7,
657,Owensboro,Owensboro,KY,42303,415 Fulton Dr,
658,Sussex County,Lewes,DE,19958,20364 Plantations Rd,
659,Murfreesboro,Murfreesboro,TN,37129,1825 Old Fort Pkwy,
660,E. Springfield,Springfield,MA,1129,1600 Boston Rd,
661,James Island,Charleston,SC,29412,770 Daniel Ellis Dr,
663,Madison,Madison,AL,35758,7920 Highway 72 West,
662,Buford,Buford,GA,30519,1955 Buford Mill Dr,
664,S. Roanoke,Roanoke,VA,24018,4224 Valley Ave,
665,W. Plano,Dallas,TX,75252,19210 Preston Rd,
667,Greer,Greer,SC,29650,1370 Wade Hampton Blvd West,
668,Hendersonville,Hendersonville,TN,37075,360 East Main St,
669,Flint,Flint,MI,48532,2100 T.A. Mansour Blvd,
670,S. Orlando,Orlando,FL,32819,2800 West Sandlake Rd,
671,Washington,Washington,PA,15301,Strabane Square 355 Washington Rd,
674,W. Chandler,Chandler,AZ,85226,7100 West Ray Rd,
675,E. Charleston,Charleston,WV,25304,5750 Maccorkle Ave SE,
677,Clayton,Garner,NC,27529,101 Cleveland Crossing Dr,
678,Cumming,Cumming,GA,30041,935 Marketplace Blvd,
679,W. Evansville,Evansville,IN,47712,103 South Red Bank Rd,
680,Monroe,Monroe,NC,28110,2350 West Roosevelt Blvd,
681,N. Central Houston,Houston,TX,77008,1521 North Loop West,
682,Southport,Southport,NC,28461,5084 Southport - Supply Rd Southeast,
676,S. Richmond,Richmond,VA,23225,2501 Sheila Ln,
685,Pearland,Pearland,TX,77581,2741 Broadway St,
684,Warren,Warren,MI,48093,31140 Van Dyke Ave,
686,Fayetteville,Fayetteville,GA,30214,1030 Glynn St North,
687,Short Pump,Glen Allen,VA,23060,4401 Pouncey Tract Rd,
688,Boise,Boise,ID,83709,7990 West Overland Rd,
689,S.E. Austin,Austin,TX,78745,5510 South IH 35,
690,D'iberville,D'iberville,MS,39540,3700 Sangani Blvd,
691,White Marsh,Baltimore,MD,21236,5300 Campbell Blvd,
692,Piscataway,Piscataway,NJ,8854,1345 Centennial Ave,
695,FT. Gratiot,Fort Gratiot,MI,48059,4200 24th Ave,
693,Sevierville,Sevierville,TN,37876,610 Winfield Dunn Pkwy,
694,Rogers,Rogers,AR,72756,300 North 46th St,
697,Concord,Concord,NC,28027,940 Concord Pkwy North,
696,Melbourne,Melbourne,FL,32904,2150 Minton Rd,
698,Oxford,Oxford,AL,36203,1836 U.S. Highway 78 East,
701,Wilkesboro,Wilkesboro,NC,28697,2003 U.S. Highway 421,
700,Lincolnton,Lincolnton,NC,28092,1603 East Main St,
703,Jensen Beach,Jensen Beach,FL,34957,4100 Northwest Federal Highway,
702,Largo,Upper Marlboro,MD,20774,10440 Campus Way South,
704,Coral Springs,Coral Springs,FL,33067,3651 Turtle Creek Dr,
707,Martinsville,Martinsville,VA,24112,1059 Commonwealth Blvd,
705,S.W. Louisville,Louisville,KY,40258,6651 Dixie Highway,
708,Heath,Heath,OH,43056,888 Hebron Rd,
706,Chambersburg,Chambersburg,PA,17201,1600 Lincoln Way East,
709,W. Chesapeake,Chesapeake,VA,23321,4708 Portsmouth Blvd,
710,John's Creek,Suwanee,GA,30024,3580 Peachtree Pkwy,
711,N. Columbus,Columbus,OH,43240,1465 Polaris Pkwy,
712,Pascagoula,Pascagoula,MS,39581,3301 Denny Ave,
713,Bloomfield Township,Bloomfield Hills,MI,48302,1801 Telegraph Rd,
714,E. Mesa,Mesa,AZ,85206,1440 South Higley Rd,
715,Alexandria,Alexandria,VA,22306,6750 Richmond Highway,
716,N.W. Tallahassee,Tallahassee,FL,32303,5500 Commonwealth Blvd,
717,Franklin,Franklin,NC,28734,161 Franklin Plaza,
719,St. Mary's County,California,MD,20619,45075 Worth Ave,
718,Kingsport,Kingsport,TN,37660,2526 East Stone Dr,
720,Timonium,Timonium,MD,21093,19 Texas Station Court,
721,Olathe,Olathe,KS,66062,13750 South Blackbob Rd,
722,Murray,Murray,KY,42071,1400 Lowe's Dr,
724,Port Richey,New Port Richey,FL,34654,8312 Little Rd,
726,Wilson,Wilson,NC,27893,2501 Forest Hills Rd West,
727,Tullahoma,Tullahoma,TN,37388,2211 North Jackson St,
725,W. Davie,Southwest Ranches,FL,33331,6600 Dykes Rd,
728,Anderson,Anderson,SC,29621,3515 Clemson Blvd,
729,Columbia,Columbia,TN,38401,2000 Hillary Dr,
730,Douglasville,Douglasville,GA,30135,7001 Douglas Blvd.,
731,Chesterfield,Chesterfield,MO,63005,290 T.H.F. Blvd,
732,Southlake,Southlake,TX,76092,201 North Kimball Ave,
733,N. Springfield,Springfield,MO,65803,1707 West Norton Rd,
734,Ann Arbor,Ypsilanti,MI,48197,3900 Carpenter Rd,
735,Warrington,Warrington,PA,18976,425 Easton Rd,
736,Opelika,Opelika,AL,36801,1701 Frederick Rd,
737,Johnson City,Johnson City,TN,37604,180 Market Place Blvd,
738,Henderson,Henderson,NC,27537,166 Dabney Rd,
740,St. Petersburg,Saint Petersburg,FL,33713,2365 25th St North,
739,Lumberton,Lumberton,NC,28358,5060 Fayetteville Rd,
742,Ormond Beach,Ormond Beach,FL,32174,1340 West Granada Blvd,
741,Port Orange,Port Orange,FL,32127,1751 Dunlawton Ave,
748,Florissant,Florissant,MO,63033,3180 North Highway 67,
746,S. Charleston,South Charleston,WV,25309,#50 Rhl Blvd,
749,N. Chattanooga,Hixson,TN,37343,5428 Highway 153,
750,Kingwood,Kingwood,TX,77339,22600 Eastex Freeway/Highway 59 North,
751,Turnersville,Turnersville,NJ,8012,100 Watson Dr,
754,Oakland Park,Oakland Park,FL,33311,1001 West Oakland Park Blvd,
753,O'fallon,Saint Peters,MO,63376,8501 Mexico Rd,
755,Dublin,Dublin,OH,43017,6555 Dublin Center Dr,
756,N.E. Albuquerque,Albuquerque,NM,87113,6200 Paseo Del-Norte,
757,Plymouth Meeting,Plymouth Meeting,PA,19462,2002 Chemical Rd,
758,Rancho Santa Margarita,Rancho Santa Margarita,CA,92688,30481 Avenida De Las Flores,
759,Redlands,Redlands,CA,92373,1725 West Redlands Blvd,
760,Springdale,Cincinnati,OH,45246,505 East Kemper Rd,
761,Burton,Burton,MI,48509,4274 East Court St,
763,Manchester,Manchester,CT,6042,31 Buckland Hills Dr,
765,Kalamazoo,Kalamazoo,MI,49009,5125 West Main St,
764,Kirkwood,Kirkwood,MO,63122,1212 South Kirkwood Rd,
766,Massillon,Massillon,OH,44646,101 Massillon Marketplace Dr SW,
768,Westland,Westland,MI,48185,6555 Newburgh Rd,
767,N. Fayetteville,Fayetteville,NC,28311,3909 Ramsey St,
769,Irvine,Irvine,CA,92602,13300 Jamboree Rd,
770,Brooklyn,Brooklyn,OH,44144,7327 North Cliff Ave,
771,Clearwater,Clearwater,FL,33761,26990 North Hwy 19,
772,Bradenton,Bradenton,FL,34203,7395 52nd Pl East,
773,N.E. Long Beach,Long Beach,CA,90808,7300 East Carson St,
774,Rancho Cucamonga,Rancho Cucamonga,CA,91730,11399 Foothill Blvd,
775,Temecula,Temecula,CA,92591,40390 Winchester Rd,
777,W. Lansing,Lansing,MI,48917,320 Marketplace Blvd,
778,Round Rock,Round Rock,TX,78681,120 Sundance Pkwy,
779,Howell,Howell,MI,48843,1100 South Latson Rd,
780,Homestead,Munhall,PA,15120,690 Waterfront Dr East,
781,Huber Heights,Huber Heights,OH,45424,8421 Old Troy Pike,
784,Summerlin,Las Vegas,NV,89128,7550 West Washington,
783,Lakeland,Lakeland,FL,33803,3525 Lakeland Highlands Rd,
785,Central Long Beach,Long Beach,CA,90815,2840 Bellflower Blvd,
786,Washington,Washington,NC,27889,1701 Carolina Ave,
787,Danville,Danville,VA,24540,280 Lowe's Dr,
790,Bakersfield,Bakersfield,CA,93308,7825 Rosedale Highway,
791,Palmdale,Palmdale,CA,93551,39500 Lowes Dr,
792,Scottsdale,Scottsdale,AZ,85254,16285 North Scottsdale Rd,
795,Fresno,Fresno,CA,93720,7651 North Blackstone Ave,
